,id,name,categories,lat,lng,postalCode,dist
0,565f5a3e498e305de0a17f07,Homeslice Pizza,Pizza Place,51.52710033,-0.07968906,EC1V 9LT,0.04858314503380629
1,57fea7f8498ec9f10a167084,Popolo,Italian Restaurant,51.52610380010933,-0.08209819489823418,EC2A 3DU,0.09805063646557896
2,5127d8e5e4b0e1bb8f9ca805,The Clove Club,Restaurant,51.52707038722568,-0.07946312427520752,EC1V 9LT,0.04707096213434011
3,57643e72498ede5f048ca51c,Flat Iron,Steakhouse,51.5248253266375,-0.08033740868454578,EC2A 3BS,0.20633431536290858
4,56fd109f498ec17225af173a,Ruby,Sandwich Place,51.525221,-0.081003,EC2A 3PB,0.165981855591382
5,4bf2444670779521e1ae3e7c,Franco's,Sandwich Place,51.5262233775817,-0.07977965250468101,EC2A 3AY,0.04991938907150508
6,53683683498e2748cac74a56,The Blues Kitchen,BBQ Joint,51.5264647,-0.0801611,EC2A 3AR,0.02460105683865684
7,52a5c42111d2a37725caa24c,On The Bab,Korean Restaurant,51.52676028609,-0.08157360207218889,EC1V 9LA,0.05808150091052041
8,4acdd66cf964a52031cd20e3,Cây Tre,Vietnamese Restaurant,51.526752791458804,-0.08172616262779167,EC1V 9LA,0.06306969841365424
9,59ecdd6d3731ee7f323645e4,Via Emilia,Italian Restaurant,51.527335004628625,-0.08048369162054024,N1 6NN,0.07694841515380696
11,56372298498eccf54c9b7aef,The Bike Shed,Café,51.52716467475097,-0.0785338000638642,EC1V 9LT,0.07205181511436227
12,56ac6e1d498eba00959dffee,Redemption,Restaurant,51.52663032671274,-0.08191852302625487,EC1V 9DR,0.06906147411515427
13,52666aa2498ed2f1c6785708,Bulldog Edition,Café,51.525711465050776,-0.07763504701548994,E1 6JQ,0.1316260866059928
14,574d7262498e5d427feaaa53,Ken's Kitchen,Asian Restaurant,51.52587493472181,-0.08314231680839175,EC2A 3HY,0.14171312729942
15,4ac5bda6f964a5206cb220e3,The Breakfast Club,Breakfast Spot,51.52705990980856,-0.08122720866375154,N1 6PE,0.06293251347013541
16,5c692ec8829b0c002c56986d,Gloria by Big Mamma,Italian Restaurant,51.52496383354684,-0.08130471249095239,EC2A 3QR,0.19629244490021702
17,5bfeeebf28374e002cf4ee9e,Burger & Beyond,Burger Joint,51.52581932656734,-0.07777467409600922,E1 6JE,0.11912165264416744
18,5ab57aa175a6ea024c652ef6,Brat,English Restaurant,51.5242190717852,-0.07705675394560946,E1 6JL,0.2899517829210029
19,50c35e21e4b08c3b59223478,MEAT Mission,Burger Joint,51.52725369399527,-0.08258264589329778,N1 6HG,0.1123683859259635
20,4d88a6a8bc848cfad211b12b,Kêu Banh Mi Deli,Vietnamese Restaurant,51.526761740800225,-0.08153179846827684,EC1V 9DR,0.056710968891621756
21,5ba4cd352db4a9002c12560c,Blacklock,Steakhouse,51.52587901855644,-0.08181229596363633,EC2A 3DZ,0.10974632270640901
22,4ad0adf5f964a5200bd920e3,The Princess of Shoreditch,Gastropub,51.5253930243815,-0.08389457472327243,EC2A 4NE,0.19703614985780737
23,54ca4b13498e65e160dcb930,Friends of Ours,Café,51.52916,-0.083724,N1 6BU,0.30697274153219234
24,594d318ba4b51b7d05bb26ed,Nobu Restaurant & Bar,Japanese Restaurant,51.52519963868433,-0.08265084703283386,EC2A 4BH,0.18895681159579344
25,52988940498e725c6a9df38f,Andina,Peruvian Restaurant,51.52436530783196,-0.07698208093643188,E2 7DJ,0.2755197085635107
26,4ad75c2df964a520cd0921e3,Pizza East,Pizza Place,51.52376263056805,-0.07703276326058599,E1 6JJ,0.33864166765235293
27,59e749e36adbf520ce460c47,Doughnut Time,Donut Shop,51.52619475747188,-0.08549651724890489,EC1V 9HE,0.19787066715733734
28,5bdcc0d36e69af00318838f1,Pachamama East,Peruvian Restaurant,51.52531737011926,-0.0822287263819268,EC2A 3HR,0.17052548560371203
29,51a62209454ae7b27328f944,Burro e Salvia,Italian Restaurant,51.52442972995472,-0.0745981511372525,E2 7DP,0.30806713699851723
30,52482fbd498ec22aa7d95532,Hoi Polloi,Restaurant,51.52587609175958,-0.07777425995751673,E1 6JQ,0.11415067642338365
31,58b82530000bef48795ef005,Nanashi,Japanese Restaurant,51.526121620714854,-0.08247447033513156,EC2A 3DU,0.1070133046355471
32,5ab43df0f5e9d758514a0f06,Leroy,Restaurant,51.52404359679944,-0.08164577815337824,EC2A 4NU,0.2990201836643431
33,5647a906498ea0ff8a76180f,Oklava,Turkish Restaurant,51.524132380271276,-0.08149213291266207,EC2A 4PY,0.2882865217237033
34,58bd6d511d21ba1e3b0f4ed6,Pizza Pilgrims,Pizza Place,51.52630468898333,-0.07803978227036894,E1 6JE,0.07503105915094475
35,4cebd08ae1eeb60cdf67b5ae,Rochelle Canteen,Restaurant,51.52576187555667,-0.07442877848285737,E2 7ES,0.2116801288080232
36,5a15c7571fa763610b678260,Butchies,Fried Chicken Joint,51.52610939824911,-0.08222891440403904,EC2A 3DY,0.10110708333672981
37,593a85340ff4f9739a9f1615,Coqfighter,Fried Chicken Joint,51.523610290202676,-0.07691586771649307,E1 6GY,0.3560686899387328
38,57d7eea3498ea60462c1fb36,What The Pitta,Vegetarian / Vegan Restaurant,51.523515649465665,-0.07610388018980559,E1 6GY,0.3747864631380756
39,5b522e34791871002ca89f99,The Frog,Restaurant,51.527367,-0.081222,N1,0.09002943229137153
40,55451d9a498ef0b1d34871cb,Voodoo Ray's,Pizza Place,51.52360575033855,-0.07725534330484644,E1 6GY,0.3534476076399688
41,4adef58cf964a520ed7621e3,Bottega Prelibato,Italian Restaurant,51.52609900743677,-0.08139097409118304,EC2A 3QB,0.08154649514443438
42,54086528498e4f691ec091b3,BunBunBun Vietnamese Food,Vietnamese Restaurant,51.53093012782418,-0.07708444328536329,E2 8DY,0.4849545408603159
43,59f361b48a6f174d16302041,Smoking Goat,Thai Restaurant,51.52423003659898,-0.07705185651043657,E1 6JJ,0.2888539376078015
44,557583c1498e61f5350ee6b9,Essential Vegan,Vegetarian / Vegan Restaurant,51.526287,-0.07745113,E2 7JP,0.09338093980480527
45,58188c2b38fab86819349c50,Smokestak,BBQ Joint,51.5236384972305,-0.07291113423363176,E1 6LB,0.41328407433558945
46,4acf3132f964a520aed220e3,Sông Quê,Vietnamese Restaurant,51.53069111901953,-0.07708650216838302,E2 8DY,0.4588219019918766
47,534d8c8d498efe2b11ce5473,Lyle's,English Restaurant,51.52367355554449,-0.07642721111628588,E1 6JJ,0.3544833244216671
48,53bbdefe498e97b80789e930,Banh-Mi & Son,Food Truck,51.521577215556746,-0.08345952650700401,,0.5810458033475548
49,4ac518c0f964a520aba320e3,Hawksmoor Spitalfields,Steakhouse,51.52147765393434,-0.0756168938529317,E1 6BJ,0.5973253228217763
50,5bae9a17a30619002c945ea4,Two Lights,Modern European Restaurant,51.5279507942951,-0.07800163738631412,E2 8DA,0.15679509446578707
51,4ac518bbf964a5200ca220e3,Beigel Bake,Bagel Shop,51.52451325564918,-0.07164344929608257,E1 6SB,0.3696623329949417
52,4fd1f87fe4b0d4fb74179aee,Curious Yellow Kafé,Scandinavian Restaurant,51.52970348105762,-0.08342706466017226,N1 6BT,0.35928968613571227
53,4c6ed297d5c3a1cd0c7bc92b,Busaba Eathai,Thai Restaurant,51.526889485691726,-0.0811351817928289,EC1V 9LE,0.04888989787417326
54,4f9321a1e4b0f888dcf9b08f,AIDA,Café,51.526550358201035,-0.07803935190870648,E1 6JE,0.06443332462304359
55,4ace87abf964a5200fd120e3,Beigel Shop,Bagel Shop,51.52439435155211,-0.07159601414304631,E1 6SB,0.37963076143869173
56,4ae46ab4f964a520779a21e3,Franze & Evans,Restaurant,51.524713299659886,-0.07259447408982599,E2 7DL,0.3305953540867486
57,4aeffc1ef964a5206eda21e3,The Albion,Bistro,51.524349,-0.07639,E1 7JE,0.2850351198001163
58,50b0bbf4e4b0a2172dcf18a4,Fabrique Bakery,Bakery,51.532036,-0.07566042,E2 8HZ,0.6159201959134237
59,56e94fda498ec86ebeb6fc90,Delamina EAST,Middle Eastern Restaurant,51.52131843153694,-0.07548547776552969,E1 6BJ,0.6156466967914034
60,4f7ddc0fe4b062316b24a77b,Lantana Cafe,Café,51.52432692929157,-0.08739218218527553,EC1Y 1HQ,0.36527344907943243
61,4ceed4e213aea143e6e16f9f,Brawn,Restaurant,51.528912924034444,-0.0703129817333181,E2 7RG,0.4109648126688389
62,551fb4a5498e84ea41d201a3,Bell Boi,Café,51.523568364454796,-0.07169185396074107,E1 6HR,0.4445044602021337
63,57e0084a498ebe11df30444c,Crosstown Doughnut & Coffee Bar,Donut Shop,51.524498648896696,-0.07163067394983612,E1 6SB,0.37105441624964386
64,4b151e15f964a52074a823e3,Tas Firin,Turkish Restaurant,51.52545849746562,-0.0702727253628311,E2 6DG,0.3540740210587144
65,572dcf4b498e6743a25b14dc,Morito,Tapas Restaurant,51.530903807600346,-0.0721104801932266,E2 8JL,0.5416313950493321
66,577295a0498ea3469bf3c9bf,The Athenian,Souvlaki Shop,51.52357929715453,-0.07627051892373911,E1 6GY,0.3661789119528495
67,530c5251498e23d2a004b4a7,Dum Dum Donutterie,Donut Shop,51.523685916336646,-0.07590145884316365,E1 6GY,0.35954905236759604
68,4fdb7c38e4b0bdf181f52326,Kahaila,Café,51.52382377507428,-0.07154394542559304,E1 6SB,0.42603348106960875
69,4cd160ed06b54688e33ee094,Sunny's Olive Tree,Food Truck,51.52640930074624,-0.08904195487165402,,0.312619423539103
70,4ede25e34901c8be21eeae23,Pitfield London,Café,51.52731302992747,-0.08363382410737683,N1 6HB,0.1461456725123234
71,57a22ace498e898a68c20cdd,Blanchette East,French Restaurant,51.5241916021595,-0.07146083967783935,E1 6SA,0.39841695724052495
72,4ac518dcf964a5204ba920e3,Hanoi Café,Vietnamese Restaurant,51.529923474618066,-0.07737396786626731,E2 8DP,0.3730923462389775
73,4b08090bf964a520ad0223e3,Premises Cafe Bistro,Café,51.531008017168325,-0.07147688077628597,E2 8JL,0.5624657741067305
74,4b50c44bf964a520883127e3,Galvin La Chapelle,French Restaurant,51.5202916837452,-0.07817938640377207,E1 6DY,0.7140668517433812
75,5763ebb3498e990e803c0684,Merkamo Ethiopian,Food Stand,51.520099,-0.07523,,0.7501487957947576
76,551466d7498e624e9ac659c4,Ceviche,Peruvian Restaurant,51.52705722737329,-0.08829510811255553,EC1V 9NU,0.2891181661265467
77,5b87d6c167e5f2002c85840a,Genesis,Vegetarian / Vegan Restaurant,51.5216588852005,-0.075888801272529,E1 6NU,0.5754722065313921
78,5a20759e89e4904686fc3ba2,Black Bear Burger,Burger Joint,51.523523097884244,-0.07549972459073451,E1 6GY,0.3815778442629257
79,4ac518c6f964a520f9a420e3,St. John Bread and Wine,Restaurant,51.519767584836174,-0.07452990292331736,E1 6LZ,0.7914823584175255
80,55379484498ea3ffb2ca3b19,Sud Italia,Food Truck,51.51965246757625,-0.07528289558272311,E1 6EW,0.7985643417371935
81,4aec5cc4f964a52053c621e3,Rosa's Thai Cafe,Thai Restaurant,51.52029,-0.073822774,E1 6QR,0.7412181853971146
82,555a43d5498e549e358f3625,Marksman,Gastropub,51.530947,-0.069542,E2 7SJ,0.5931676174177251
83,57c8203d498e43a03a2b7ae9,Vita Mojo,Salad Place,51.51892507419836,-0.07767617007366469,E1 6AN,0.8674665045899774
84,4fd72c57e4b054e49f33d63a,The Orange Buffalo,Wings Joint,51.520996590471405,-0.07328861092566546,E1 6QL,0.6717126048534108
85,5225ad7811d2bbe5de66bca8,Mother Clucker,Fried Chicken Joint,51.521021064372405,-0.07324671126241437,E1 6QL,0.6696194705134298
86,552a4b25498e6e675f2ce59e,Ottolenghi,Mediterranean Restaurant,51.51827179652063,-0.07717729864282495,E1 7LJ,0.9416239341954392
88,55537b80498eca9bfce36370,Yauatcha,Chinese Restaurant,51.51882820696518,-0.08349768631963068,EC2M 7UR,0.8835463510924164
89,4dcbcc6cd22d7ffe9d352e02,The Breakfast Club,Breakfast Spot,51.518386,-0.078784,E1 7LS,0.9251069664930609
90,59e1ffe1dd70c5577e27507f,Dumpling Shack,Food Truck,51.519560088526426,-0.07524248413537851,E1 6EW,0.8089423847947316
91,529f9914498edf741fd295d2,Clutch,Fried Chicken Joint,51.529822119951305,-0.07105610181975072,E2 7QG,0.4627586627983022
92,572f580c498e77d16cfe8945,Pavilion Bakery,Bakery,51.52926176852781,-0.06958545795762676,,0.45458134400353634
93,4ace0e07f964a52018ce20e3,Pilpel Falafel,Falafel Restaurant,51.51909848621259,-0.07712982733096684,E1 6AT,0.8500445514045882
94,5624cdaa498e6d667b7eabee,Honest Burgers,Burger Joint,51.52691541711204,-0.08874859301013106,EC1V 9NU,0.3025368790625796
95,5a6c958ca42362046acfc53c,Monty’s Deli,Jewish Restaurant,51.51965946700907,-0.07509797242137688,E1 6BG,0.799059009631998
97,4ba23f17f964a520bce637e3,Cafe Caribbean,Caribbean Restaurant,51.51976066446726,-0.07525316964539976,E1 6EW,0.786931640123443
98,59e0eca9c0cacb6488e5a1c9,Yum Bun,Food Truck,51.519888698016125,-0.07515156965134168,E1 6BG,0.7736533624957121
99,4d4c07c17aa6a35dcc8cd270,Poppies Fish & Chips,Fish & Chips Shop,51.52033652797438,-0.07411133225735177,E1 6QR,0.7335401707325674
100,4e95cdbc02d5c92d4685122d,Amici Miei,Pizza Place,51.527939562724335,-0.07803048177596657,E2 8DA,0.15524996353834855
101,4ad3b332f964a520b9e520e3,The George & Vulture,Pizza Place,51.52929382261947,-0.08368496983331977,N1 6BU,0.3200178595369913
102,552fee6c498e17137c118b88,Franco Manca,Pizza Place,51.51877998751915,-0.08344802055426549,EC2M 2QS,0.8886437720852735
103,5832bd4c761b1a3f495f1031,Radio Alice,Pizza Place,51.528146,-0.081552,N1 6NT,0.17417545469842013
104,4fd5bdd9e4b0d6a97dfae6ed,Rossopomodoro,Pizza Place,51.52693603583076,-0.081291665066788,N1 6PE,0.056131960085307006
105,55379484498ea3ffb2ca3b19,Sud Italia,Pizza Place,51.51965246757625,-0.07528289558272311,E1 6EW,0.7985643417371935
106,5659edf3498e89a645ac96d5,Paradise Slice,Pizza Place,51.51985146589715,-0.07184592150436002,E1 6RL,0.8085605888777181
107,5b2552d38d0a53003900f4f2,You Me And The Pizza,Pizza Place,51.52095,-0.072609,E1 6QL,0.6846392833675484
108,5cae2bea788044002b5524ef,Flamboree,Pizza Place,51.525098,-0.091238,EC1V 9BW,0.42394464389660136
109,4ad210abf964a5202bdf20e3,Stringray Globe,Pizza Place,51.53035356916949,-0.06815007972602627,E2 7RL,0.5732427713120496
110,59a00cd1b23dfa46850d8720,Tank & Paddle,Pizza Place,51.520830253803986,-0.07896346241399381,EC2M 3AB,0.6523518446965909
111,4ac518c0f964a520aea320e3,Dream Bags Jaguar Shoes,Bar,51.528090657835925,-0.07796470856276878,E2 8DA,0.17162421155575133
112,4b02efa8f964a5202e4b22e3,Pizza Express,Pizza Place,51.524019701355456,-0.08058440244678877,EC2A 3PT,0.2966129410074483
113,4c14f3687f7f2d7fa996e168,Italiano Pizza,Pizza Place,51.52926936818896,-0.08865494632023026,N1 7RD,0.4159804346335638
114,4b7847b9f964a520c6c12ee3,Cafe Olive,Pizza Place,51.53143986564255,-0.08014417593749426,N1 6SH,0.5324011625726817
115,4f1eae18e4b07f86b53a47fb,The Barrel Boulangerie,Pizza Place,51.531308740878075,-0.08015143720730017,N1 6SH,0.5177751439808207
116,5ae9e9968cdedf00240b4350,Laboratorio Pizza,Pizza Place,51.520278,-0.071989,E1,0.7622142456381796
117,55b4ce3a498edddae5f95cec,Pizza Buzz,Pizza Place,51.521956293172806,-0.08613787666490343,EC2A 2AH,0.5672280253063461
118,4af0914bf964a52046dd21e3,Best American Pizza,Pizza Place,51.527031003976546,-0.08365085323844824,N1 6EY,0.13407521213419224
119,56ec820f498e167301f23a9f,Slice and More,Pizza Place,51.526079,-0.086336,EC1V 9HE,0.22889643139618893
120,4ad36a78f964a52041e420e3,Pizza Express,Pizza Place,51.518824351232304,-0.07920929400029308,EC2M 4QD,0.8757311819880347
121,571e7728498e1c38cbddab2e,Bufi,Pizza Place,51.527572,-0.076738,,0.14718244572622097
122,50afb112e4b05090c1b469c0,PizzaExpress,Pizza Place,51.519611408736644,-0.07437040698510644,E1 6LY,0.8096923718895207
123,5218fa4711d2effcb93ea200,Fundi,Pizza Place,51.52315097422464,-0.07940106454150678,EC2A 3EJ,0.39297421898037027
124,554b5ee2498eb997c4b34b34,Sodo Pizza Cafe,Pizza Place,51.5293314499587,-0.08383512496948242,N1 6BU,0.3259334720407427
125,4bb67bb9f562ef3bda3d3097,Pizza Pronto,Pizza Place,51.529861,-0.077107,E2,0.3685410530392521
126,4f456517e4b080c0396d0d5b,US Way Pizza,Pizza Place,51.53051950581574,-0.0726771354675293,E2 7QL,0.4948138945034428
127,4cb9f6d543ec6dcb9908a131,Barbican Express Global Food,Pizza Place,51.52277159024728,-0.09272116009302346,E c1y,0.6161683709868963
128,4bc6d29ab387d13a5765c2e8,The Royal Star,Pub,51.5283154969849,-0.09260138773151994,EC1V 2PN,0.4697654775768526
129,56fd109f498ec17225af173a,Ruby,Italian Restaurant,51.525221,-0.081003,EC2A 3PB,0.165981855591382
130,4e95cdbc02d5c92d4685122d,Amici Miei,Italian Restaurant,51.527939562724335,-0.07803048177596657,E2 8DA,0.15524996353834855
131,4d454ad9e198721e4ba8c48b,Cafe 12,Italian Restaurant,51.52829748845306,-0.07582897809968918,E2 7NX,0.22829601348185494
132,4bb5fb2cf562ef3b93732f97,Campania Gastronomia,Italian Restaurant,51.529850795667194,-0.06868630681944737,E2  7RG,0.5209430854968031
133,4fd5bdd9e4b0d6a97dfae6ed,Rossopomodoro,Italian Restaurant,51.52693603583076,-0.081291665066788,N1 6PE,0.056131960085307006
134,5606cd78498e9b2a65a4a9e7,Canto Corvino,Italian Restaurant,51.5185407185002,-0.07840717394849966,E1 7HA,0.9084795707638149
135,5a0cb08767e5f2046ad3e8c0,Passo,Italian Restaurant,51.52493191921503,-0.08771525803669257,EC1Y 2AS,0.3292692071278841
136,5bba3f759be522002c3d2215,Cecconi’s,Italian Restaurant,51.524403049739156,-0.07448728577300467,E2 7DP,0.31269049962041706
137,4b532b17f964a520ec9027e3,Carluccio's,Italian Restaurant,51.520372671665726,-0.07710286640652711,E1 6DZ,0.7090276726199451
138,53c6e476498e17e45cbc3f80,La Tagliata,Italian Restaurant,51.517935915729915,-0.07767246459560175,E1 7HW,0.9774849085164836
139,57a48b6c498ee3704be296e4,Savure,Italian Restaurant,51.52301682921036,-0.08434597943649051,EC2A 4HJ,0.4348357502581284
140,4ad210abf964a5202bdf20e3,Stringray Globe,Italian Restaurant,51.53035356916949,-0.06815007972602627,E2 7RL,0.5732427713120496
141,5728e93f498e67e916db365b,Enoteca da Luca,Italian Restaurant,51.52594225793048,-0.0884190112150382,EC1V 9NR,0.3012109249719667
142,5b577ea24a7aae002c7ed354,Bottles (Sood Family),Italian Restaurant,51.519193,-0.075127,E1 6AA,0.8498930460041362
143,4fcf5571003957fed8803a9c,Pasta e Basta,Italian Restaurant,51.52631622918796,-0.08296284208084256,EC2A 3DT,0.11163980844716764
144,4bc6f3220050b71330c5b73b,Giovanni's,Italian Restaurant,51.52210520948324,-0.08704323089313239,EC1Y 2AA,0.5644304486184317
145,4b7847b9f964a520c6c12ee3,Cafe Olive,Italian Restaurant,51.53143986564255,-0.08014417593749426,N1 6SH,0.5324011625726817
146,5950ffbc1f8ed6211a74c254,WOLF II,Italian Restaurant,51.519493,-0.084501654,E C2M,0.8160159065264522
147,4f19c21ee4b0402540b3c9d3,Enoteca Supertuscan,Wine Bar,51.51821893634598,-0.07714343995917375,E1 7LJ,0.9476072801179969
148,5cadd364da5e56002c2fa283,Cafe Nero,Italian Restaurant,51.518766,-0.079656,EC2M 3YD,0.8819706793161959
149,54eb0cb5498e2c090a25146e,My Pasta Bar by Gino D'Acampo,Italian Restaurant,51.521293921454756,-0.07950780889855417,EC2M 3UG,0.599988088254739
150,5415f287498ec4529027a106,La Cucina,Italian Restaurant,51.51951144541619,-0.07169206263404876,E1 6RL,0.8460716389830629
151,4c095572ffb8c9b690bc6961,Piccolino,Italian Restaurant,51.51999543026553,-0.08112890293340698,EC2A 2BR,0.7459295775545306
152,4b7e9483f964a520c0f32fe3,Cozzo,Italian Restaurant,51.52382695193257,-0.09339300964179015,EC1Y 8QP,0.5581755857191868
153,5bffe68d1543c7002c1cbffe,La Spiga,Italian Restaurant,51.523271,-0.082121,EC2A 4HU,0.386728377964726
154,4b7e94d9f964a520cff32fe3,Micha Fine Food,Italian Restaurant,51.519708561619304,-0.07521946935569651,E1,0.7928575651836773
155,585c3d1b03e29a03446d6429,Kitty Hawk,Italian Restaurant,51.51914713251212,-0.0870734062062061,,0.8742309531106346
156,5bd1ea8da0215b002c4f15c5,Di Stefano,Italian Restaurant,51.530645,-0.076815,E2 7PA,0.4558220461990347
157,58188c2b38fab86819349c50,Smokestak,Steakhouse,51.5236384972305,-0.07291113423363176,E1 6LB,0.41328407433558945
158,4fbabe9be4b0c673b642103c,Tramshed,Steakhouse,51.525849907368496,-0.08165591208728445,EC2A 3LX,0.10936726133070819
159,57ab3348498e2da27946af85,Sagardi Basque Country Chefs,Steakhouse,51.52527846914773,-0.08050888014291503,EC2A 3BS,0.15662252270283522
160,4b58a4a8f964a5203e6328e3,Gaucho,Steakhouse,51.51932812558569,-0.08416869136455682,EC2M 2PG,0.8320235519307547
161,5d1cea7f1822230026162176,Flat Iron,Steakhouse,51.519525,-0.074505,E1 6LY,0.8180364341792398
162,58851ddb89151d20aae5d69d,South Place Chop House,Steakhouse,51.51898672119461,-0.08647660964359494,EC2M 2AF,0.8860830293389321
163,576ac9e8498ee0426b867988,London Steakhouse Co. City,Steakhouse,51.517778,-0.078024,,0.9942185550675258
164,4d7699177dee2c0fe24403f4,The Steak Exchange,Steakhouse,51.519942159376704,-0.08055868422016735,EC2A 2EH,0.751029232761878
165,4b9becc7f964a520803636e3,Marco Pierre White Steak & Alehouse,Steakhouse,51.51783284782931,-0.07808612981530418,E1 7JF,0.9879769957532601
166,5c052fc0588e36002cceaf57,Pret A Manger,Sandwich Place,51.526726,-0.078254,E1 6JE,0.05610327510132005
167,4c6697019cb82d7ff0eb90d2,Cundall & Garcia,Sandwich Place,51.51921357771155,-0.07690059966887373,E1 6AG,0.8381928158032014
168,4b7bf6abf964a52004762fe3,Veggie Pret,Sandwich Place,51.524698915014,-0.08103503648051157,EC2A 3QD,0.22329341666038058
169,53d88e39498ebb65403ff587,Pret A Manger,Sandwich Place,51.52117965497204,-0.07968934057578435,,0.6126351892131279
170,4e438a271f6e0a1ba5d260d1,Paninis Sandwich Bar,Sandwich Place,51.521992834347785,-0.08176814028407142,,0.5257405686306778
171,4b28e379f964a520ef9524e3,Pret A Manger,Sandwich Place,51.52443232951331,-0.08748142055900683,EC1Y 1HQ,0.35912763596204206
172,4b97a213f964a520bb0c35e3,Toto's Sandwich Bar,Sandwich Place,51.523213282856915,-0.08206696569460648,EC2A 4HU,0.3926956130995603
173,4c2a03cc360cef3b6561bedc,Atlantic Sandwich Bar,Sandwich Place,51.52592611091407,-0.0832732365403882,EC2A 3HZ,0.1418004354512803
174,4bd6b014cfa7b71387e827da,Lennies Sandwich Bar,Sandwich Place,51.52567177896552,-0.08743603286012809,EC1Y 1BE,0.27973938324615194
175,4b5479faf964a520babc27e3,Silvios,Sandwich Place,51.52428219312367,-0.08429042022120499,EC2A 4LN,0.3055277700144913
176,51a625427dd21f797bb24977,Pret A Manger,Sandwich Place,51.523870601646706,-0.07736840014728144,E1 6HU,0.3239068566727039
177,558fe5ab498e1c64e2e58566,Pret A Manger,Sandwich Place,51.524849111487285,-0.07175700737087985,E2 7DG,0.34331731343897276
178,4e4d0487e4cdcf486c726b3a,Turner & Roast,Sandwich Place,51.51885786366345,-0.07294535636901855,E1 6QR,0.9031573264666695
179,4e77477d62e126351735f8d3,The Great Wall,Sandwich Place,51.52546427227426,-0.08980165966928236,EC1V 9JS,0.36294790818706885
180,4ae05062f964a5209c7e21e3,Hoxtons,Sandwich Place,51.52681825639434,-0.08131316338868792,EC1V 9LA,0.051103747013574986
181,529c89c611d29ff7ade75ea3,Subway,Sandwich Place,51.524624,-0.071654,E1 6SA,0.36146223697133234
182,55bf6e03498e258482452a5b,Pret A Manger,Sandwich Place,51.52777240600744,-0.08941986055408097,EC1V 1NR,0.3467089967130867
183,53807912498ebd1e8259699c,Crazy Salads,Sandwich Place,51.52691589398617,-0.08048751564038417,EC1V 9NQ,0.03415000990364536
184,4e6779581838501628559fa9,Subway,Sandwich Place,51.53310194684772,-0.07826402510833477,,0.7199377854561577
185,4b917729f964a52094be33e3,Whatchamacallit's,Sandwich Place,51.52706761971587,-0.08031735784292761,EC1V 9LT,0.04672760481677722
186,4e9963679adffd1f477a8e9a,Cafe Passione,Sandwich Place,51.52211560134039,-0.09232721970253249,,0.6611968684024722
187,4b55dc04f964a52049f327e3,EAT.,Sandwich Place,51.524802334873065,-0.08119058047727774,EC2A 3HS,0.21297254291238837
188,577cca35498e2c214d85a924,M&S Food To Go,Sandwich Place,51.51914750937358,-0.07811342404673788,E1,0.8415412763986051
189,4af45b0af964a5209ef121e3,Fix Coffee,Coffee Shop,51.523333,-0.09326,EC1Y 8JL,0.5877315340476226
190,4b484a94f964a520324b26e3,Aquila Cafe,Sandwich Place,51.528455159859625,-0.09218653461982049,EC1V 2PN,0.46329543200832396
191,4bd57c476f649521c1136fec,Silvios Sandwich Bar,Sandwich Place,51.524758781873004,-0.08212053160259851,,0.2262767012163477
192,4ccc802aaa25a35d5666150f,Lennies Snack Bar,Sandwich Place,51.526448329514004,-0.07741892465265665,,0.08769778568667302
193,4acb3a61f964a5204ec320e3,Subway,Sandwich Place,51.52487701886968,-0.08122770744935821,EC2A 3EP,0.20510303416554948
194,4cbaf31cbac93704afccee7c,Pret A Manger,Sandwich Place,51.51811039839809,-0.08002556923834685,EC2M 3AB,0.955102707335305
195,4bcef33d68f976b035bf6683,Appetite,Sandwich Place,51.522840103932694,-0.08062812314354288,EC2 3NQ,0.42804006933428157
196,4b7e94d9f964a520cff32fe3,Micha Fine Food,Sandwich Place,51.519708561619304,-0.07521946935569651,E1,0.7928575651836773
197,4f329211e4b0acb1ed00f2a6,Artisserie,Sandwich Place,51.52264282467836,-0.0806596683347428,EC2A 3NY,0.45007944097862795
198,4cc8425794e1a093555a968b,EAT.,Sandwich Place,51.525344761350965,-0.08749721298302524,EC1Y 1BD,0.29796506387006916
199,4f338724e4b0b5f6dea5c52d,Val's Sandwich Bar,Sandwich Place,51.5286746212159,-0.07043474576349461,E2 7RG,0.39192019127644573
200,5ae9c3d0fe3740002c583e3e,EAT.,Sandwich Place,51.517911,-0.08177,EC2M 7PR,0.9794275017346257
201,4c1f4b6ebd9d9521e03d983f,Subway,Sandwich Place,51.51797146517535,-0.07852899440443911,E1 7JF,0.9717034721484329
202,55dc776e498eaa84c458aabf,Pulled Pork House,Sandwich Place,51.519914,-0.075314,,0.7697549571690655
203,4b484a24f964a5202d4b26e3,La Lampara Sandwich Shop,Sandwich Place,51.52851807290212,-0.09248422260986003,EC1V 2PN,0.47546209713157284
204,4c35d00f66e40f47f9b2cb8b,Anjelique,Sandwich Place,51.533958119230235,-0.0802357165483287,N1 5LG,0.8134259848159072
205,51d570b3498e750d51e0f8c8,Super Deli Sandwich,Sandwich Place,51.51811050768623,-0.07786089097581764,,0.9575777105213779
206,4b993191f964a520b26835e3,Subway,Sandwich Place,51.52434967192699,-0.08747365573237975,EC1Y 2AN,0.3654127457447612
207,5964dfb982644408936d8994,Sub Cult,Sandwich Place,51.5197783742228,-0.08489203977882198,EC2M 2PB,0.7875497246152029
208,4ad39ca5f964a52030e520e3,EAT.,Sandwich Place,51.52264018107491,-0.08704707887375188,EC1Y 1AE,0.5112729853295485
209,4baaf466f964a5206c8f3ae3,Upper Crust,Sandwich Place,51.517936653938406,-0.08182522492025732,EC2M 7QH,0.9766955899048675
210,571e5c73cd104795c2c8f81d,Smokey Tails,BBQ Joint,51.52754130069357,-0.08135935115945372,N1 6NU,0.10934479152939697
211,4ddbb28e18388dd692371228,Red Dog Saloon,BBQ Joint,51.52743162689017,-0.08088732681097925,N1 6NN,0.0915413371084519
212,51d36a8f2fc68954ca656b1a,Caboose,BBQ Joint,51.52088806903754,-0.07325037795036032,E1 6QR,0.6835658367188727
213,557ade61498e2f0253159e93,Bodean's,BBQ Joint,51.52816150642481,-0.09101245115579085,EC1V 1JN,0.41332743281478346
214,4e4d0487e4cdcf486c726b3a,Turner & Roast,BBQ Joint,51.51885786366345,-0.07294535636901855,E1 6QR,0.9031573264666695
215,4d907d8c788c5481672d65fd,Roast Of Sherwood,BBQ Joint,51.523298479833095,-0.09305785050814147,EC1Y 8JL,0.5848962308498019
216,4f781f20e4b01af713873e7b,Ribman,BBQ Joint,51.52282743357842,-0.07156784102791162,E1 6HR,0.5138225242853692
217,4de6317e1f6e9d90c7ec5364,Saveurs D'Espagne,BBQ Joint,51.52305892282133,-0.09292876467967653,,0.5991781338223762
218,559fb374498e9eb733c8685b,Bibento,Korean Restaurant,51.52273562622516,-0.09275548180957294,,0.6198316364298396
219,5b65c353f4b525002c84d4fe,Yanji,Korean Restaurant,51.525376,-0.070555,E2 7DG,0.34892320343377287
220,5638ff7260b2753ece75b702,Korrito Korean BBQ,Korean Restaurant,51.52381671259497,-0.07533838608128463,E1 6GY,0.35403290132438
221,5aabc72f89b06a64eb5b3b46,Goko,Korean Restaurant,51.520301,-0.076996,E1,0.7174446156064229
222,52e01f72498ec75d48300391,Green Papaya,Vietnamese Restaurant,51.5305599001313,-0.0772069554136478,E2 8AG,0.4436481515495591
223,4ad20e3ef964a52015df20e3,Viet Grill,Vietnamese Restaurant,51.52912712195311,-0.0777401487671565,E2 8DP,0.28386315381993976
224,4ce67d47baa6a1cd94a5216c,Chao Viet Urban Taste,Vietnamese Restaurant,51.52434139190882,-0.09373957247394724,EC1Y 8QN,0.5379667367678206
225,4afabdf6f964a520761822e3,Mien Tay,Vietnamese Restaurant,51.53044043644521,-0.0771797386520526,E2 8DP,0.43080923780122926
226,4b79c586f964a520fc102fe3,Loong Kee Cafe,Vietnamese Restaurant,51.531100270838,-0.07710958533482162,EC2 8DY,0.5034209185875005
227,557047f0498ec58f76f4857b,HOP vietnamese,Vietnamese Restaurant,51.51959137801644,-0.08453888467925781,E C2A,0.805492937150519
228,5778148d498e1c78ed926721,Pho House,Vietnamese Restaurant,51.530085829835485,-0.07733296252478102,E2 8DP,0.3910555969947607
229,4addec49f964a5204e6621e3,Tay Do Café,Vietnamese Restaurant,51.52975451276621,-0.07746529011066317,E2 8AG,0.3540308837635258
230,4ff42e1be4b0cdc6b6f91635,Pho,Vietnamese Restaurant,51.51914539183954,-0.07667780129322498,E1 6AG,0.84669152226477
231,5bd888e5772fbc00399a81b7,Eat Chay,Vietnamese Restaurant,51.52348416152351,-0.07633030414581297,E1 6GY,0.37553148766498284
232,57dfc6a9498ee91bf0eb45d6,Tay Do Restaurant,Vietnamese Restaurant,51.52903109384912,-0.07775053381919861,E2 8DP,0.27342974498861655
233,4ac518d8f964a5207aa820e3,Viet Hoa,Vietnamese Restaurant,51.52936146470902,-0.07752978662700513,E2 8DP,0.3109744268929021
234,504f2298e4b0994349c1770a,Bahnhmill,Vietnamese Restaurant,51.52644356609409,-0.08444345808151499,,0.1568617649438202
235,4d278667f7a9224bf71fec9f,Anh Dao,Vietnamese Restaurant,51.530149017328455,-0.07729183288880795,E2 8DP,0.3982412388156328
236,4b521c67f964a520bb6827e3,Hung Việt,Vietnamese Restaurant,51.530855,-0.07721252999999999,E2 8DY,0.47588413937491886
237,53a48cb2498e4ec9e96e5416,Cu tu,Vietnamese Restaurant,51.53093592816066,-0.07719036389507662,,0.4848930363290136
238,525fcf29498eaf45b3705863,Aobaba Bubble Tea,Vietnamese Restaurant,51.52962120968368,-0.07755974252507615,E2 8AG,0.3388166689359489
239,5afc654b9fca56002c6fe660,Pho Spitalfields,Vietnamese Restaurant,51.5189899,-0.0766389,E1 6AG,0.8640688159385882
240,533d6c41498ec0f9f718972e,Hoi-An,Vietnamese Restaurant,51.52031326293945,-0.07127419859170914,E1 5JL,0.7674908490484735
254,4b1973fef964a5209add23e3,Lahore Express,Asian Restaurant,51.526344571010256,-0.06602658412162007,E2 6AH,0.4731247125199129
277,5040721ae4b01446aa41d438,Dishoom,Café,51.524514821853664,-0.0768497140891246,E2 7JE,0.2617674077031122
278,4bf2444670779521e1ae3e7c,Franco's,Café,51.5262233775817,-0.07977965250468101,EC2A 3AY,0.04991938907150508
279,566c18da498ea7697febe43c,The Grocery Cafe,Café,51.52882539882658,-0.07778749765161179,E2 8DP,0.25101942807397715
280,505f0968e4b008dd84502696,Paper & Cup,Café,51.5262343496183,-0.0768667459487915,E2 7JP,0.11381523510391983
281,4e9565e649015a078d596b0d,White Rabbit Studio,Event Space,51.525711,-0.078584,,0.11584335544198991
282,574d7262498e5d427feaaa53,Ken's Kitchen,Café,51.52587493472181,-0.08314231680839175,EC2A 3HY,0.14171312729942
283,4acefee0f964a5203ad220e3,The Book Club,Café,51.524619,-0.081392,EC2A 4RH,0.23441987897199215
284,54169442498ef164b3f64324,The Attendant,Coffee Shop,51.52567030759055,-0.08251011371612549,EC2A 3JL,0.14268665073855732
285,5717308e498ee189f80cd99e,Nepa,Café,51.52757337290646,-0.08698617693974109,N1 6DR,0.261563655441862
286,556dba64498e452733b375a0,Origin Coffee,Coffee Shop,51.526347014643754,-0.08120403288614247,EC2A 3PE,0.05731297987937084
287,4f54937ce4b0e14ed9512da2,Ozone Coffee Roasters,Coffee Shop,51.52469267882992,-0.08673686302230602,EC2A 4AQ,0.3207397539947171
288,4ae46ab4f964a520779a21e3,Franze & Evans,Café,51.524713299659886,-0.07259447408982599,E2 7DL,0.3305953540867486
289,4fd1f87fe4b0d4fb74179aee,Curious Yellow Kafé,Café,51.52970348105762,-0.08342706466017226,N1 6BT,0.35928968613571227
290,4b81544cf964a520b89f30e3,Leila's Shop,Café,51.52615120780902,-0.07565516491985984,E2 7JP,0.15532601199385437
291,59773f3d82a750601f73a8db,Beans & Greens,Café,51.526311,-0.077411,E2 7JP,0.09341988019573907
292,4aeffc1ef964a5206eda21e3,The Albion,Café,51.524349,-0.07639,E1 7JE,0.2850351198001163
293,4bc2159f4cdfc9b63f839521,Close-Up Cinema,Café,51.52358891731688,-0.07209972942470932,E1 6HR,0.4341104390233545
294,57c93682498ec194fb57161a,Renzo,Coffee Shop,51.524733512016034,-0.08228226484648439,EC2A 4QS,0.23081569689589934
295,545504ad498ee281f0397b78,The Canvas,Café,51.52030124904233,-0.07149538224756781,E1 5JL,0.765891441107222
296,4acee315f964a52004d220e3,The Shepherdess,Café,51.52830355639314,-0.09163498878479004,EC1V 1JN,0.4391383570738569
297,564f6195498e222d8551f633,Eighty Four,Café,51.52624926303311,-0.08378235992189739,EC2A 3JL,0.14039243699528886
298,4f256932e4b0a93fbfe0a57b,Hundred Years Gallery Cafe,Café,51.53301803009266,-0.07615622383906907,E2 8JD,0.7197521859593737
299,4bbb37f87421a593408ac440,Riccardo's,Café,51.52255890972233,-0.08450359380734898,EC2A 4JJ,0.4847693318543624
300,4e07092918a8382643b1bca3,Long White Cloud,Café,51.53038835195166,-0.07357744459981226,E2 8JL,0.4673114661345036
301,58c698d5a149263b9e61d3c3,Moko Made,Café,51.533748,-0.077157,,0.7953590238584871
302,4e187a832271b0e971fc447d,Fix 126,Coffee Shop,51.5261760356537,-0.08027967918937925,EC2A 3PJ,0.0566071841081324
303,4adb7057f964a5207b2721e3,Cafe 1001,Café,51.520996953345495,-0.07206954984835406,E1 6QL,0.6866604909514531
304,5cd9456c0d173f002c0e124f,Watch House,Café,51.520923,-0.075322,E1 6BJ,0.6598201837469737
305,5ac489a9febf315d8957020b,Woolidando,Café,51.526377,-0.066518,E2 6AH,0.45618414082164044
306,4de5f8bfb3ad2c317fe2dcae,Shoreditch Grind,Coffee Shop,51.525781027976414,-0.08782817046583351,EC1V 9NR,0.2876001983910573
307,57c8203d498e43a03a2b7ae9,Vita Mojo,Café,51.51892507419836,-0.07767617007366469,E1 6AN,0.8674665045899774
308,4ba23f17f964a520bce637e3,Cafe Caribbean,Café,51.51976066446726,-0.07525316964539976,E1 6EW,0.786931640123443
309,4acd7f02f964a52034cc20e3,Nude Espresso,Café,51.520264,-0.072695576,E1 6QR,0.7555475140663102
310,4ca4e7f29324236a6786f0b4,Allpress Espresso Bar,Coffee Shop,51.52443457582421,-0.07422605506727563,E2 7DJ,0.3152077939289341
311,4af45b0af964a5209ef121e3,Fix Coffee,Café,51.523333,-0.09326,EC1Y 8JL,0.5877315340476226
312,4e22d193b61cdcf1eccbf8e5,Lily Vanilli Bakery,Café,51.5294260720699,-0.06967732173315319,E2 7RH,0.4641184359317319
313,4c6697019cb82d7ff0eb90d2,Cundall & Garcia,Café,51.51921357771155,-0.07690059966887373,E1 6AG,0.8381928158032014
314,5814a7c338fa6994c523de6c,Café in the Crypt,Café,51.519104878455764,-0.07344961166381836,E1 6LY,0.8721143704723219
315,4b66dc93f964a520c72d2be3,Spianata & Co.,Café,51.519145240402125,-0.07699986520815381,EC2 M 7,0.8453627890919044
316,534bfbc611d27fad3b0e4009,Dolcezza,Café,51.52297341980402,-0.08491876924232943,EC2A 4DN,0.44647381521507695
317,4fde10ebe4b090d3f64c642b,Vintage Bean,Café,51.52352226765031,-0.07100332707153341,,0.46345440682482336
318,50ed7672e4b0addb770fe96a,No 42 Coffee Junction,Café,51.52875896843709,-0.08848804167219056,N1 7SU,0.3740078547983492
319,4cb97a39dd41a35de5e0e1a0,Cafeand,Café,51.5246595874013,-0.07380100505449624,E2 7DJ,0.30536463129179636
320,4ea6d2f161af7d6a0c16a65e,RichMix Café,Café,51.52432577700758,-0.07280508060049197,E1 6LA,0.35571744948663625
321,4b7bf6abf964a52004762fe3,Veggie Pret,Café,51.524698915014,-0.08103503648051157,EC2A 3QD,0.22329341666038058
322,4b439315f964a5208ae325e3,The Bridge,Coffee Shop,51.52857443606441,-0.07803085558570418,E2 8AA,0.22181655995288538
323,56dd7784498eebad078f1f6d,J+A Cafe,Café,51.52476249683296,-0.09387780569645698,,0.5212051008918975
324,51c705065019f88f4bbe1232,Westland Coffee & Wine,Coffee Shop,51.52819440790679,-0.09046711933868924,N1 7LP,0.397973168844671
325,53d88e39498ebb65403ff587,Pret A Manger,Café,51.52117965497204,-0.07968934057578435,,0.6126351892131279
326,4acde617f964a52077cd20e3,Rough Trade East,Record Shop,51.521118759239336,-0.07242980528970552,E1 6QL,0.6694074814368908
327,4ad210abf964a5202bdf20e3,Stringray Globe,Café,51.53035356916949,-0.06815007972602627,E2 7RL,0.5732427713120496
328,58c75531113efc61a4f2047a,Quaker Street Cafe,Café,51.52217475995585,-0.07481619715690613,E1 6SZ,0.530454710329158
329,51d36a8f2fc68954ca656b1a,Caboose,Café,51.52088806903754,-0.07325037795036032,E1 6QR,0.6835658367188727
330,4c52a0b2f31a9c74dc1b84ea,Polo Bar,Café,51.517737802816605,-0.08052156027092973,EC2M 4NQ,0.9968993018095298
331,530a37ff498e04243718a1be,Pretty Cuppa,Coffee Shop,51.52328742213561,-0.07149861906607771,E1 6SA,0.473260440213577
332,59b91b96446ea65e0997c775,Theatre Deli,Café,51.51984954639919,-0.08509703450491259,EC2M 2PA,0.7813477946843945
333,5b7ae19fefa82a002c5e00c4,Crispin,Coffee Shop,51.51823466128597,-0.07626475897921868,E1 7NF,0.9492832621150342
334,4b28e379f964a520ef9524e3,Pret A Manger,Café,51.52443232951331,-0.08748142055900683,EC1Y 1HQ,0.35912763596204206
335,546f442c498e622527287e21,Hoxton Pastry Union,Café,51.526275971552714,-0.08363868393680984,EC2A 3JL,0.13479491969526497
336,4df4c4a46284fefe8fc6c7c1,The Ginger Pig Café,Diner,51.533345993039724,-0.0801439875193382,N1 5LG,0.7450846470634869
337,4f5f0740e4b0912b83bffdc4,Department of Coffee and Social Affairs,Coffee Shop,51.52101364246427,-0.0788824656441215,EC2M 3UG,0.6320563044038904
338,5aca098ec9a5175009570c67,Cereal Killer Cafe,Café,51.52380359298339,-0.07145671741915499,E1 6SB,0.4296910837497563
339,50f2dd8fe4b00599e6de0faa,Motown Desserts,Café,51.52545600801517,-0.07044290164616047,E2 7DG,0.34883737456695657
340,4f1eae18e4b07f86b53a47fb,The Barrel Boulangerie,Café,51.531308740878075,-0.08015143720730017,N1 6SH,0.5177751439808207
341,4b7847b9f964a520c6c12ee3,Cafe Olive,Café,51.53143986564255,-0.08014417593749426,N1 6SH,0.5324011625726817
342,4c39c3501e06d13a4e107a3e,Cafe Columbia,Café,51.52933880684907,-0.06930033524705101,E2 7RG,0.46753473545764895
343,4f71a0de6d8600cdf5ad1445,Dose Café,Café,51.52261575355392,-0.08558714310820544,EC2A 4BX,0.4920842494040928
344,51a625427dd21f797bb24977,Pret A Manger,Café,51.523870601646706,-0.07736840014728144,E1 6HU,0.3239068566727039
345,558fe5ab498e1c64e2e58566,Pret A Manger,Café,51.524849111487285,-0.07175700737087985,E2 7DG,0.34331731343897276
346,5cadd364da5e56002c2fa283,Cafe Nero,Café,51.518766,-0.079656,EC2M 3YD,0.8819706793161959
347,55bf6e03498e258482452a5b,Pret A Manger,Café,51.52777240600744,-0.08941986055408097,EC1V 1NR,0.3467089967130867
348,505ca041e4b0474d87e3f201,Chalet Cafe,Café,51.53463763260451,-0.07699960563931033,,0.8945991686406072
349,4acdf314f964a520a3cd20e3,Lati Ri,Café,51.526417,-0.079285,,0.03493661992359016
350,4bed1c4391380f47846e9f18,Cafe Arena,Café,51.526433771935494,-0.08780808330894407,EC1V 1JB,0.27057236540621254
351,5416ea15498e8ab00d339e2f,AMPM,Café,51.52959418355622,-0.08692460045990615,,0.40466462356346933
352,53dbec1b498ec0fd0edc1046,Makers Cafe,Café,51.52736177814328,-0.0780415108593295,SE22 8DE,0.09967618099794069
353,516d3f86e4b083caaf027e8b,Enjoy Cafe,Café,51.528089725690386,-0.07989135357069882,N1 6ND,0.1584929887513372
354,4ad46994f964a520cbe720e3,Faro,Café,51.52676432964595,-0.08153915930211929,,0.05701021183438598
355,56c7976a498e5841707a5f37,Shoreditch Arts Club,Café,51.524699681874644,-0.08194218217985573,EC2A 4RH,0.23059441091505398
356,4f3cf0d0e4b02e311167bf15,La Noisette,Café,51.524149,-0.079915,EC2A 3PT,0.2812504087323946
357,5c824398f1fdaf002b13cc58,Meetinz,Café,51.525193,-0.081736,EC2A 3QR,0.1762830396208718
358,4c095572ffb8c9b690bc6961,Piccolino,Café,51.51999543026553,-0.08112890293340698,EC2A 2BR,0.7459295775545306
359,56dc622c498e2649a2712fcc,Sorry Coffee Co,Café,51.5245,-0.07600274,,0.275892069775359
360,5821ab8403fcb433a67e0bac,Little Shoreditch Cafe,Café,51.523293,-0.08222245,EC2A 4HU,0.3850170542235821
361,4b74551cf964a520cdd52de3,City Cafe,Café,51.521947436668235,-0.08116934377952213,EC2 A 2,0.5287072910355974
362,4ca9c94d76d3a09357c2226b,Costa Coffee,Coffee Shop,51.51861146722625,-0.085160956337376,EC2M 7LS,0.9168676011537993
363,4cbaf31cbac93704afccee7c,Pret A Manger,Café,51.51811039839809,-0.08002556923834685,EC2M 3AB,0.955102707335305
364,5bbfc29b59c4230039e99f06,Issho-Ni,Japanese Restaurant,51.526104,-0.06792024,E2 6AB,0.41216787149559436
365,54c8e951498e51274c49062e,Beer & Buns,Japanese Restaurant,51.520460662511994,-0.08213501463345822,EC2A 2AF,0.6970154657068423
366,5d715f84a5cdf100089597a8,wagamama,Asian Restaurant,51.525885,-0.088633,EC1V 9NR,0.30997142663908916
367,5b224e2cb9b37b002c27d006,Pleasant Lady Jian Bing Trading Stall,Chinese Restaurant,51.519668,-0.07539,E1 6EW,0.7961558191943446
368,59e1ffe1dd70c5577e27507f,Dumpling Shack,Dumpling Restaurant,51.519560088526426,-0.07524248413537851,E1 6EW,0.8089423847947316
369,59e0eca9c0cacb6488e5a1c9,Yum Bun,Chinese Restaurant,51.519888698016125,-0.07515156965134168,E1 6BG,0.7736533624957121
370,4dcd25afae603b786d0e6a43,GrabThai,Thai Restaurant,51.52461631369361,-0.08695110316640338,EC2A 4AQ,0.33189363723180965
371,4acb902bf964a52052c420e3,Pham Sushi,Japanese Restaurant,51.52343080881136,-0.09314279548812773,EC1Y 8JL,0.577762643053878
372,4ac518d8f964a52090a820e3,Moshi Moshi,Japanese Restaurant,51.518172498400176,-0.08196671712452108,EC2M 7QH,0.9507843803825865
373,54d0d7c8498e7c67eb5c3931,Busaba Eathai,Thai Restaurant,51.5237880554342,-0.07388886793715889,E1 6HT,0.3809180180867904
374,5135eaace4b09490b4b86807,K10,Japanese Restaurant,51.520455,-0.082113,EC2A 2AF,0.6975620450898767
375,4b61905ff964a520d9172ae3,Japanika,Japanese Restaurant,51.520233,-0.07391263,E1 6QR,0.7464901238687088
376,580140e038fa810125c9e323,Mama Lan,Chinese Restaurant,51.524025,-0.072919875,E1 6GU,0.3786139478188929
377,4b545740f964a52009b827e3,wagamama,Asian Restaurant,51.5197684,-0.07684909999999999,E1 6EW,0.7770068039414968
378,4e77477d62e126351735f8d3,The Great Wall,Chinese Restaurant,51.52546427227426,-0.08980165966928236,EC1V 9JS,0.36294790818706885
379,4b6ac8baf964a5202ce02be3,New East House,Chinese Restaurant,51.52353747296507,-0.09317897894329229,EC1 8PU,0.5713665222890456
380,4de626acd22d7fddb9cf5aaf,Kung Food,Asian Restaurant,51.5181819546875,-0.07935439274183878,E1 7HY,0.9472840649397697
381,504744f4e4b04aab883e4691,Wasabi,Japanese Restaurant,51.518065517999645,-0.08015783444746165,EC2M 4NR,0.9601425640455776
382,525bd07011d21fe690f35628,itsu,Sushi Restaurant,51.52039040716995,-0.07729389347909396,E1 6DX,0.7062234612721527
383,56126707498e23266a7d1845,Nha-Mor Thai Street Food & Noodle Bar,Thai Restaurant,51.519033954996694,-0.0762881439761008,,0.8608122206528406
384,4b473984f964a520252d26e3,Mudmee Restaurant,Thai Restaurant,51.51818295292898,-0.07740173703579584,E1 7LJ,0.9507796499510233
385,5859295fd8b0ed132ad7679f,Sanjugo,Sushi Restaurant,51.52325681704436,-0.08220098807623671,EC2A 4HU,0.38882094745018353
386,4f1582a1e4b0960d02ccc617,itsu,Sushi Restaurant,51.5245209447574,-0.08054199915080863,EC2A 3HP,0.2407601857977744
387,4eb28c766da1df5f01d3db7d,BOXPARK Shoreditch,Shopping Mall,51.523594926665496,-0.07645713354605768,E1 6GY,0.3624401587036501
388,55f017ff498efb9c23d2cf99,Maki,Sushi Restaurant,51.519281365679106,-0.07756543836684732,E1 6AT,0.8282175608711252
389,4ccc802aaa25a35d5666150f,Lennies Snack Bar,Thai Restaurant,51.526448329514004,-0.07741892465265665,,0.08769778568667302
390,547cbd9a498eab8890035b5e,Ned's Noodle Bar,Noodle House,51.52697540212827,-0.08367515180023775,N1 6HB,0.13313907103567005
391,599b160266f3cd6c7313748a,Shoryu Ramen,Ramen Restaurant,51.52441231563904,-0.08039150632941364,EC2A 4NR,0.2524374637351341
392,4c59d5936407d13a392fb328,Wasabi,Sushi Restaurant,51.51791805093255,-0.08168777068209788,EC2M 7PY,0.9784637732449056
393,4eaa99306c250fcc7439050a,ICN Gallery,Art Gallery,51.52481925096546,-0.08164428566408995,EC2A 4RH,0.21488547741647154
394,58d416e00b56562b96edd886,Yumplings,Dumpling Restaurant,51.523407,-0.079589,EC2A 3NN,0.36419504334352737
395,5bc5ddfdccad6b002cebde85,Chaadao. Tea & Matcha bar,Asian Restaurant,51.524374,-0.084074,EC2A 4NA,0.29299333474573647
396,4cbf6529ca4aa1cdc6d319b4,Supachef,Chinese Restaurant,51.53025609672168,-0.08030003643857567,N1 6LP,0.4004765134364688
397,58343e396d632545b1174d7c,FAB Thai Street Food,Thai Restaurant,51.5225479612773,-0.08446742365780087,,0.4855296300040201
398,552fa0dc498ebecc18a02b79,Abokado,Sushi Restaurant,51.526480144000416,-0.08784007803060433,EC1V 2NR,0.271203780110279
399,5752b41c498ecf0183c2f2b7,Bone Daddies Old Street,Ramen Restaurant,51.52690656714628,-0.0890108487076457,EC1V 9NV,0.3113377916659891
400,5b6c3c73e075500039c755b6,Buy & Bite,Asian Restaurant,51.524032,-0.084133,EC2A 4ED,0.3277608725727776
401,516d507a7ab4e2a4c25a0595,itsu,Sushi Restaurant,51.51915828688337,-0.07944703102111816,EC2M 3TQ,0.8382960403414667
402,552e642f498e32a2343f162d,Shoryu Ramen,Ramen Restaurant,51.51878158401482,-0.08370369672775269,EC2M 2QS,0.8896932289011472
403,4c290e05e19720a14ee8f858,Piya Piya,Thai Restaurant,51.524305438396965,-0.08746851582125363,EC1 Y 1,0.3688035963194518
404,4eb315e1d3e3bcda5ae06e45,Ba Shu,Chinese Restaurant,51.525113,-0.071234,E2 6DG,0.3419608786438834
405,5726027f498e719c6f580167,Monohon,Ramen Restaurant,51.524758,-0.093204,EC1V 9AY,0.5005802403465656
406,4acdd443f964a52029cd20e3,Abokado,Sushi Restaurant,51.52395878353,-0.08743192908814157,EC1Y 2AN,0.39658659440370325
407,540c5f8f498e32e774fb8051,KOI Ramen Bar,Noodle House,51.52313033827127,-0.07153952096059338,E16 6SA,0.48653920279384966
408,5a3a72b24940bc6c36bf6163,Grabthai,Thai Restaurant,51.51945,-0.079688,EC2M 3WA,0.8056370167400563
409,5a54b27775eee46709b07d29,Jiaba,Chinese Restaurant,51.519751,-0.075291,E1 6EW,0.7877314172310367
410,4ae0582bf964a520b67e21e3,Wasabi,Japanese Restaurant,51.52032289299483,-0.08729967311165956,EC2A 1AT,0.7516987346058035
411,4bd0a57e046076b04a677071,Ming Pat,Chinese Restaurant,51.53149209044448,-0.08937993224047361,,0.6275309639944756
412,59ef474e8496ca35af42d6cf,Thousand Knives,Japanese Restaurant,51.519566,-0.075063296,E1 6AA,0.8095106985716687
413,54ca4b13498e65e160dcb930,Friends of Ours,Breakfast Spot,51.52916,-0.083724,N1 6BU,0.30697274153219234
414,52666aa2498ed2f1c6785708,Bulldog Edition,Breakfast Spot,51.525711465050776,-0.07763504701548994,E1 6JQ,0.1316260866059928
415,4b81544cf964a520b89f30e3,Leila's Shop,Grocery Store,51.52615120780902,-0.07565516491985984,E2 7JP,0.15532601199385437
416,4f7ddc0fe4b062316b24a77b,Lantana Cafe,Breakfast Spot,51.52432692929157,-0.08739218218527553,EC1Y 1HQ,0.36527344907943243
417,4acd7f02f964a52034cc20e3,Nude Espresso,Breakfast Spot,51.520264,-0.072695576,E1 6QR,0.7555475140663102
418,4df4c4a46284fefe8fc6c7c1,The Ginger Pig Café,Breakfast Spot,51.533345993039724,-0.0801439875193382,N1 5LG,0.7450846470634869
419,4acee315f964a52004d220e3,The Shepherdess,Breakfast Spot,51.52830355639314,-0.09163498878479004,EC1V 1JN,0.4391383570738569
420,4bb5fb2cf562ef3b93732f97,Campania Gastronomia,Breakfast Spot,51.529850795667194,-0.06868630681944737,E2  7RG,0.5209430854968031
421,58a5a674e786b24bb904a817,The Bach,Breakfast Spot,51.53096417358103,-0.08011009351540287,N1 6SG,0.479307391189297
422,4c52a0b2f31a9c74dc1b84ea,Polo Bar,Breakfast Spot,51.517737802816605,-0.08052156027092973,EC2M 4NQ,0.9968993018095298
423,4ac518baf964a520cca120e3,Jones Dairy Cafe,Breakfast Spot,51.529672207236196,-0.0696196370522148,E2 7RH,0.48417571231173157
424,57c94c79498e6ab82ad827a4,Dirty Bones,Breakfast Spot,51.52395350800071,-0.07401463306976008,E1 6JX,0.3630941351557573
425,5aca098ec9a5175009570c67,Cereal Killer Cafe,Breakfast Spot,51.52380359298339,-0.07145671741915499,E1 6SB,0.4296910837497563
426,53807912498ebd1e8259699c,Crazy Salads,Breakfast Spot,51.52691589398617,-0.08048751564038417,EC1V 9NQ,0.03415000990364536
427,58851ddb89151d20aae5d69d,South Place Chop House,Breakfast Spot,51.51898672119461,-0.08647660964359494,EC2M 2AF,0.8860830293389321
428,4b83d6b9f964a520ee1231e3,Chop'd,Breakfast Spot,51.51933568257478,-0.07587441870604755,E1 6EW,0.8297025589292004
429,4b215793f964a520603a24e3,Woodin's Shades,Breakfast Spot,51.51821111991677,-0.07980715420603866,EC2M 4PT,0.9438570387449614
430,54bf74e2498e11378297895d,Harry's Place,Breakfast Spot,51.52556294616799,-0.08745766178468185,EC1Y 1BE,0.2854536586264193
431,5a9c43af03369325cee37d1f,canteenM,Breakfast Spot,51.523908,-0.078674,EC2A 3ET,0.3109187568644373
432,4acf2ddff964a5209ad220e3,Market Cafe,Breakfast Spot,51.52394255131163,-0.09345743031482144,EC2,0.5527759369941218
433,4d02110418ff8cfab971c257,Moretti Coffee Shop,Breakfast Spot,51.53076674208519,-0.07663276679290541,E2 8DY,0.4704770030632756
434,4b4923a8f964a520796726e3,Yummy's Cafe,Breakfast Spot,51.523663444994476,-0.0687358604988259,N1 4HS,0.506539350854472
435,4c21d5ec9390c9b6418fc9cd,Daisy cafe&restaurant,Breakfast Spot,51.53306409350434,-0.07670025801865658,E2,0.7217962177852077
436,4ad8f139f964a5203b1621e3,Haché,Burger Joint,51.526613481661435,-0.08041603133146778,EC2A 3QE,0.01886919924186772
437,5467bca7498eae1923f3e31d,Honest Burgers,Burger Joint,51.518042,-0.077957,E1 7HP,0.9649740020195993
438,5015243ae4b07ac9f23ddbf0,Bleecker St.,Burger Joint,51.519781822662786,-0.07510146619515874,E1 6EA,0.7856732301478748
439,572092d6cd102b6ac60bcd2b,The Draft House,Burger Joint,51.526546839449715,-0.08896137114953344,EC1V 9NR,0.3088306162436306
440,4dd26a681838a751965a23c2,The Wild Game Co.,Burger Joint,51.52299227782073,-0.09281928980749479,,0.6014752744563225
441,51d36a8f2fc68954ca656b1a,Caboose,Burger Joint,51.52088806903754,-0.07325037795036032,E1 6QR,0.6835658367188727
442,53f38beb498ee559e05d16dc,Dirty Burger,Burger Joint,51.52365442926233,-0.07609614220590974,E1 6LA,0.3603784410846766
443,4b60ae85f964a520cdf329e3,Gourmet Burger Kitchen,Burger Joint,51.51967931007017,-0.07534244907378707,E1 6EW,0.7952306791444853
444,534d0b59498e0d2c76a49ee6,Byron,Burger Joint,51.523825829670855,-0.07400178097272535,E1 6HT,0.37530152246432313
445,4ad772f4f964a520a60a21e3,The Flying Horse,Burger Joint,51.520375438521015,-0.08517618207520233,EC2A 2ER,0.7249755352709499
446,55aa5fec498e4067cc3fc85e,Duck'N Roll,Burger Joint,51.523315509523194,-0.079028516641456,EC2A 3EJ,0.37541064250788053
447,5aa787a88173cb54d8c74129,The Vurger Co,Burger Joint,51.524056466835184,-0.072733663169,E1 6LD,0.379913510255998
448,586ba1ce45c3ed5c6a57ac34,The Posh Burger Company,Burger Joint,51.524745,-0.093608,EC1V 9AY,0.5136527869872616
449,5840778e18384c5356681695,Aviary,English Restaurant,51.52179539298163,-0.08559013006519264,EC2A 1DX,0.5773945785683162
450,50237f538055249578a0f772,Angler Rooftop Restaurant and Terrace,English Restaurant,51.51910998709554,-0.08672874544646893,EC2M 2AF,0.8750223050539508
451,575e9bdc498e773584489265,The Frog,English Restaurant,51.52061549791916,-0.07333602386741765,E1 6QR,0.7114237742216518
452,4d89b5721508a143597d131e,The English Restaurant,English Restaurant,51.519147181720896,-0.07652989378880268,E1 6AG,0.8471583067555041
453,50ada85ae4b09d9e06107da4,Kennedy's,English Restaurant,51.52367600780855,-0.093329390937727,EC1Y 8JT,0.5661673069707774
454,58da52fa00841a7081a40e08,The Three Crowns,Gastropub,51.52702062316489,-0.08788196936342309,N1 6AD,0.27461657275110063
455,4ad85d94f964a520161121e3,The Eagle,Gastropub,51.5285177340379,-0.09194364215271887,N1 7LB,0.45894466658354194
456,56a225e138fa6835bf091eaa,Galvin HOP Bistrot & Bar,Gastropub,51.5201246348014,-0.07784038782119751,E1 6DY,0.7336546666046564
457,4c347783ed37a59367df6e03,Open Kitchen,Gastropub,51.52907699298208,-0.07987267819297897,N1 6LR,0.2686621882443013
458,4dc6ded045dd26455294633e,Chiswell Street Dining Rooms,Gastropub,51.52080854099942,-0.0907007036314477,EC1Y 4SA,0.7502874789789646
459,4b215793f964a520603a24e3,Woodin's Shades,Gastropub,51.51821111991677,-0.07980715420603866,EC2M 4PT,0.9438570387449614
460,4b4b89c1f964a5208a9f26e3,William IV Pub,Gastropub,51.53034756865413,-0.09238349317083247,N1 7QE,0.5908026072469638
461,4cd0232606b54688071cd994,The White Horse,Pub,51.51989444433165,-0.0814085288423005,EC2M 2QA,0.7577688239178734
462,4acd5bcdf964a520f8cb20e3,The Fox,Pub,51.523357650695615,-0.08432956319183155,EC2A 4LB,0.399195342153559
463,54464c70498ee5422ea4bfbd,Salt Point,Gastropub,51.51987046810675,-0.08052270950870537,EC2A 2EH,0.7589900454328469
464,4dc24e3dd1643ed27a4c05b0,Window Canteen,Coffee Shop,51.531075369224766,-0.06854887592275104,E2 7SJ,0.625032061260476
465,5d715f84a5cdf100089597a8,wagamama,Japanese Restaurant,51.525885,-0.088633,EC1V 9NR,0.30997142663908916
466,4b545740f964a52009b827e3,wagamama,Japanese Restaurant,51.5197684,-0.07684909999999999,E1 6EW,0.7770068039414968
467,4eaa99306c250fcc7439050a,ICN Gallery,Japanese Restaurant,51.52481925096546,-0.08164428566408995,EC2A 4RH,0.21488547741647154
468,5987730e0123583235aac197,Suito,Japanese Restaurant,51.51952,-0.071722,E1 6RL,0.8448348329842889
469,5ba54956b399f7002cf4f56b,Sushi Show,Sushi Restaurant,51.525066,-0.0710316,E2 6DG,0.35055769002716136
470,5718c247498e8a38135909f1,Maki,Sushi Restaurant,51.526135,-0.089104,,0.31900337010164964
471,5698f89e498e05b31c2d3a3a,Wasabi,Sushi Restaurant,51.51840781340033,-0.08396444111216533,,0.9322533646291337
472,4ad5bbe9f964a520510321e3,Habibi Sushi,Sushi Restaurant,51.51820136167411,-0.07723958428052212,E1 7LK,0.9492422722505836
473,5aeee3b00d2be7002c6a04b8,Ardinalondon,Peruvian Restaurant,51.524467,-0.075708,E1 7DJ,0.28402007759248105
474,5bf6aeb4598e64002c9daa4f,Sangucheria,Peruvian Restaurant,51.51954,-0.07526178,E1 6AA,0.8110131027942595
475,5968c6bafe37400c129e782d,Crosstown Doughnuts,Donut Shop,51.5200963192707,-0.0759377031977171,E1 6EA,0.7457233234281003
476,4b866a57f964a520338931e3,Krispy Kreme,Donut Shop,51.518217,-0.083496,EC2M 7PY,0.9511298467077454
477,51b08b60e4b095d04b54e67b,You Doughnut,Donut Shop,51.52322301477823,-0.07915450555560237,EC2A 3EJ,0.38539822218584474
478,53b54866498e3c01b544433f,Lalezar,Turkish Restaurant,51.524696580642946,-0.0840789285030779,,0.26219868954301095
479,4bfc120cda7120a1a38549fd,The Iskelé,Turkish Restaurant,51.523967412896695,-0.0934525460298217,EC1Y 8QP,0.5511145398655641
480,54ae83d1498e0da4bfec5eaa,The Turkish Gozleme Company,Turkish Restaurant,51.5228077416949,-0.09278980197319958,,0.614991287503096
481,4e3827f5d22d4cf95ee81151,Best Mangal Kebab & Café,Turkish Restaurant,51.52624911945379,-0.08468590576481048,EC2A 3JD,0.16968246514904278
482,4bc4e241b492d13ad8b6aa60,Damascu Bite,Middle Eastern Restaurant,51.522299778330414,-0.07804697924154928,E1 6PG,0.4916286706143413
483,5a79a9cd66fc650f1644c87c,Village Kitchen,Turkish Restaurant,51.523063,-0.092857,E C1Y,0.597066479400002
484,55f5a22c498e583586f60311,Thunderbird,Fried Chicken Joint,51.523253810325,-0.07916607027623901,EC2A 3EJ,0.38194347674809737
485,4ba91bcdf964a520ff0b3ae3,Taste Of Tennessee,Fried Chicken Joint,51.52714576678236,-0.08364577226015338,,0.13830938324140207
486,56d1a587498e4199994b6086,The Chicken Box,Fried Chicken Joint,51.52347590591483,-0.07715244639169151,E1 6GY,0.36835098070964223
487,4fbfda3de4b05b850281d027,Hoxton Pizza & Chicken,Fried Chicken Joint,51.530764414374794,-0.08020341081596526,N1 6LP,0.45708163332125323
488,4bc11f6eabf49521429cc093,Chicken Cottage,Fried Chicken Joint,51.52632666268444,-0.08777316971858423,EC1V 1JB,0.27081816772896905
489,4ba00e8af964a5204b5637e3,KFC,Fried Chicken Joint,51.51783619872652,-0.08039184669501764,EC2M 4NQ,0.9858360367147283
490,59cd593f91eaca3d8eaa4f52,Vegan Nights London,Vegetarian / Vegan Restaurant,51.521603,-0.07140074,E1,0.6348939531055828
491,5b214b9779f6c7002c292e6b,Vida Vegan Bakery,Vegetarian / Vegan Restaurant,51.523909,-0.071618,E1 6SB,0.4172893598427045
492,5848791af68d8d38cfcf6446,Vegan Burgers by Mooshies,Vegetarian / Vegan Restaurant,51.51973095696915,-0.07178295871370416,E1 6RL,0.8219430367814635
493,4b7bf6abf964a52004762fe3,Veggie Pret,Vegetarian / Vegan Restaurant,51.524698915014,-0.08103503648051157,EC2A 3QD,0.22329341666038058
494,4acf1c1cf964a5206fd220e3,Nincomsoup,Vegetarian / Vegan Restaurant,51.52562864860116,-0.08745311652292098,EC1Y 1BE,0.28221890864361326
495,5bd888e5772fbc00399a81b7,Eat Chay,Vegetarian / Vegan Restaurant,51.52348416152351,-0.07633030414581297,E1 6GY,0.37553148766498284
496,552fa0dc498ebecc18a02b79,Abokado,Vegetarian / Vegan Restaurant,51.526480144000416,-0.08784007803060433,EC1V 2NR,0.271203780110279
497,4acdd443f964a52029cd20e3,Abokado,Vegetarian / Vegan Restaurant,51.52395878353,-0.08743192908814157,EC1Y 2AN,0.39658659440370325
498,59427dc3ee7120657bdfc450,Club Mexicana,Vegetarian / Vegan Restaurant,51.523495,-0.07855788,EC2A 3PQ,0.35712727735147104
499,5aa787a88173cb54d8c74129,The Vurger Co,Vegetarian / Vegan Restaurant,51.524056466835184,-0.072733663169,E1 6LD,0.379913510255998
500,5bb1dbecab42d9002c4a2af5,Good To Go,Vegetarian / Vegan Restaurant,51.526136181865056,-0.08843572011007456,EC1V 9NR,0.296672637623139
501,5b02d12fb6eedb0039e5c550,Pilpel,Vegetarian / Vegan Restaurant,51.519886,-0.074917,E1 6EW,0.7756502112920238
502,5afc654b9fca56002c6fe660,Pho Spitalfields,Vegetarian / Vegan Restaurant,51.5189899,-0.0766389,E1 6AG,0.8640688159385882
503,4b916b91f964a52014bb33e3,Carnevale,Vegetarian / Vegan Restaurant,51.5228177223886,-0.09282453485713163,EC1 8 JL,0.6150561015003306
504,4b65b020f964a520bff92ae3,Sri Thong,Thai Restaurant,51.51810230292367,-0.07837660299480326,E1 7ES,0.9573855911220157
505,52798c5711d254701e02f7e5,Thai Thai East Restaurant,Thai Restaurant,51.524867217440594,-0.09320692461328152,EC1V 9BD,0.49560091269165363
506,53fa11f5498e154811ba3dbf,Bamboo Box,Thai Restaurant,51.52388141724172,-0.0773311790474141,E1 6LG,0.3230825433143326
507,4b4c7aeff964a52010b426e3,Thai & Lao Cusine Van,Thai Restaurant,51.520984274999996,-0.073235,,0.6736189543089515
508,4baa0d37f964a520c6463ae3,Lek's Thai Food,Thai Restaurant,51.52296669454252,-0.09269884731935167,,0.6004466952966672
509,4d63ba6edbeb224b79a2a245,Warin Thai,Thai Restaurant,51.522736508860255,-0.09278297424316406,,0.6204226575815931
510,5452425a498e175ca17ab0e3,Persian Kebab,Food Truck,51.524714935729435,-0.08215458228130076,,0.23127548399464537
511,53ac0026498ee596ef17218b,The Backstreet Diner,Food Truck,51.52161318437401,-0.08341372317798512,EC2A 4EX,0.5767955490361826
512,4baa0d04f964a520b0463ae3,Luardos,Food Truck,51.52304356657261,-0.09287131072075627,EC1Y 8JL,0.5988891407890132
513,57b5aeb9498e99db348ebb4c,Smokoloko,Food Truck,51.52041116808199,-0.0769488874981884,E1 6EA,0.7054953315424293
514,4da6e60f5da37feee891de15,Buddha Bowl,Food Truck,51.52415195302359,-0.09355238381306126,,0.54302739220438
515,4c56b31130d82d7fd409d862,Hoxton Beach Falafel,Food Truck,51.52313064257692,-0.09312417421988904,E C1Y,0.5988077389944394
516,564cd371498ef728d183c07d,Katsu Wrap,Food Truck,51.523438661711694,-0.09314242319312294,E1 7TP,0.5772050298158004
517,4fd72c57e4b054e49f33d63a,The Orange Buffalo,Food Truck,51.520996590471405,-0.07328861092566546,E1 6QL,0.6717126048534108
518,5225ad7811d2bbe5de66bca8,Mother Clucker,Food Truck,51.521021064372405,-0.07324671126241437,E1 6QL,0.6696194705134298
519,5015243ae4b07ac9f23ddbf0,Bleecker St.,Food Truck,51.519781822662786,-0.07510146619515874,E1 6EA,0.7856732301478748
520,55f4406e498e94cec4f540b3,Liberty Cheesesteak Company,Food Truck,51.52015300740107,-0.07612645626068115,E1 6EW,0.7383608679661731
521,54b29cf5498edb37ea59d426,The Black Cab Coffee Co,Food Truck,51.5232073184524,-0.07160295222708853,,0.47831732920756836
522,4dd26a681838a751965a23c2,The Wild Game Co.,Food Truck,51.52299227782073,-0.09281928980749479,,0.6014752744563225
523,5996daffa423622ec96d0e2d,Beijummy,Food Truck,51.5228690834846,-0.09278462652032804,EC1Y 8JJ,0.6100879465678762
524,559fb374498e9eb733c8685b,Bibento,Food Truck,51.52273562622516,-0.09275548180957294,,0.6198316364298396
525,54ae83d1498e0da4bfec5eaa,The Turkish Gozleme Company,Food Truck,51.5228077416949,-0.09278980197319958,,0.614991287503096
526,4fcf5571003957fed8803a9c,Pasta e Basta,Food Truck,51.52631622918796,-0.08296284208084256,EC2A 3DT,0.11163980844716764
527,4e4d0487e4cdcf486c726b3a,Turner & Roast,Food Truck,51.51885786366345,-0.07294535636901855,E1 6QR,0.9031573264666695
528,56277a3d498ef02cd3aa9d4e,Tre Rote,Food Truck,51.51999127139868,-0.07530675972031967,,0.76136313433066
529,56b1fd8f498e8b92194ec136,The Duck Truck,Food Truck,51.52017037212798,-0.0762023163864249,,0.7360080038364468
530,56742d68498ebfc9e98c43e9,Al Chile,Food Truck,51.51969855602704,-0.07546088263649908,E1 6EW,0.7923476731921864
531,4fb4eaf7e4b0337375037589,Veg As You Go,Food Truck,51.52481621603596,-0.0841350024932893,,0.2521815299434233
532,4ed0f31ff790d070391526d8,Yum Bun,Food Truck,51.523269273726,-0.07907429514640352,EC2A 3EJ,0.38043729080047894
533,4e8c309a8b81e6788fe6f333,Falafel Stand,Food Truck,51.52361074252893,-0.07505830387120117,EC1,0.37887205238691773
534,56a35789498e9815b8f18947,Le Swine,Food Truck,51.52331275266038,-0.07540753464628158,E1 6ED,0.4044524650926698
535,511f77e6e4b0b8dae535f255,Shades,Food Truck,51.53105196445972,-0.08017553517306922,,0.4891415067815042
536,52f34766498e0a0683ff8651,Coffee East,Food Truck,51.52338473364938,-0.07534983344031952,,0.3977838470734176
537,50815599e4b0f71a259f238b,Arancini Bros,Food Truck,51.520824271363324,-0.07317461876644137,,0.6911367548912563
538,5a0997c8b3d8e22ec618ea21,Lovely Pasta,Food Truck,51.52035487396333,-0.07667905502697221,E1,0.7130637546944213
539,4b4c7aeff964a52010b426e3,Thai & Lao Cusine Van,Food Truck,51.520984274999996,-0.073235,,0.6736189543089515
540,55ffeb95498e2e96b7281136,Turkish Wrap House,Food Truck,51.519688402790834,-0.0752829925152356,,0.794632186987256
541,55781da7498ef2315edeaf46,Market Green,Food Truck,51.51966286679414,-0.07507637445107819,E1 6EW,0.798838012765644
542,58f9f848ba4a64209ca4dfa3,Kokodoo,Food Truck,51.519308043827266,-0.08358472417588367,EC2M 2QS,0.8309958256162081
543,59e203ae91eaca1e446cdead,Berber & Q,Food Truck,51.5194471165228,-0.07529381655865341,E1 6EW,0.8209745173672895
544,5b0188a7cd441c00396ba9de,Wheelcake Island,Food Truck,51.52034613180852,-0.08908574433464668,E1 6BG,0.7718168573900259
545,4cb9f6d543ec6dcb9908a131,Barbican Express Global Food,Food Truck,51.52277159024728,-0.09272116009302346,E c1y,0.6161683709868963
546,4baa0d37f964a520c6463ae3,Lek's Thai Food,Food Truck,51.52296669454252,-0.09269884731935167,,0.6004466952966672
547,51dab1ac498e369278f75f11,Lil Italy,Food Truck,51.523102,-0.092862,,0.5942681410794045
548,4e9586575c5ca8d363eef0fe,Holmesbake,Food Truck,51.523438670802044,-0.09313094243962777,,0.5768994181335327
549,4de6317e1f6e9d90c7ec5364,Saveurs D'Espagne,Food Truck,51.52305892282133,-0.09292876467967653,,0.5991781338223762
550,4d25b95a903c8cfa45c7d025,Ravello on Whitecross,Food Truck,51.523423,-0.093192,,0.5796138864224185
551,599430b1a6fe4d2ebed0bb25,The Wrap Guys,Food Truck,51.522766424727436,-0.09276132437906594,EC1Y 8JL,0.6175433677881575
552,4d63ba6edbeb224b79a2a245,Warin Thai,Food Truck,51.522736508860255,-0.09278297424316406,,0.6204226575815931
553,50892359e4b07c16d265ab0f,Soppka,Food Truck,51.5235,-0.093362,,0.57885037849996
554,5a54b27775eee46709b07d29,Jiaba,Food Truck,51.519751,-0.075291,E1 6EW,0.7877314172310367
555,5964dfb982644408936d8994,Sub Cult,Food Truck,51.5197783742228,-0.08489203977882198,EC2M 2PB,0.7875497246152029
556,4ac518eef964a52021ad20e3,Whitecross Street Market,Street Food Gathering,51.52348342351405,-0.09317372951900009,EC1Y 8JA,0.5749351555491821
557,54d27691498e3c44ae9a585f,Blixen,Modern European Restaurant,51.51916866369338,-0.07528426111416424,E1 6AA,0.8515577671208167
558,5b7ae19fefa82a002c5e00c4,Crispin,Modern European Restaurant,51.51823466128597,-0.07626475897921868,E1 7NF,0.9492832621150342
559,59fa1af358002c5b77ed069b,Rascals,Modern European Restaurant,51.525482,-0.08054506,EC2A 3BS,0.13434743225871332
560,59e60773b3c961786d310bbf,The Allegory,Modern European Restaurant,51.52170048863221,-0.07892790192998135,EC2A 2FA,0.5554472260436398
561,4b917729f964a52094be33e3,Whatchamacallit's,Bagel Shop,51.52706761971587,-0.08031735784292761,EC1V 9LT,0.04672760481677722
562,5a12d8e78ad62e5b05066fe4,Dirty Bagels,Bagel Shop,51.519853,-0.07528,E1 6EW,0.7766551801832622
563,590a16b7b040566507cc8fbb,Eat Lagom,Scandinavian Restaurant,51.52328451696584,-0.07930962498686803,E8 1HA,0.3782366825519806
564,57d5a1c6498ed490d911fbf4,The Dining Club,Scandinavian Restaurant,51.521584,-0.07836308,E1,0.569856383060002
565,5747443d498e298f69724f43,Petit Pois,Bistro,51.52774923857484,-0.08136203090673678,N1 6NU,0.13045679621065706
566,4bf2444670779521e1ae3e7c,Franco's,Bistro,51.5262233775817,-0.07977965250468101,EC2A 3AY,0.04991938907150508
567,59df63c2491be752446c4d22,The Social Bee,Bistro,51.52170603307068,-0.07894275295681484,E C2A,0.5547999513161367
568,4aeffc1ef964a5206eda21e3,The Albion,Bakery,51.524349,-0.07639,E1 7JE,0.2850351198001163
569,530c5251498e23d2a004b4a7,Dum Dum Donutterie,Bakery,51.523685916336646,-0.07590145884316365,E1 6GY,0.35954905236759604
570,5b214b9779f6c7002c292e6b,Vida Vegan Bakery,Bakery,51.523909,-0.071618,E1 6SB,0.4172893598427045
571,4ac518c6f964a520f9a420e3,St. John Bread and Wine,Bakery,51.519767584836174,-0.07452990292331736,E1 6LZ,0.7914823584175255
572,505f0968e4b008dd84502696,Paper & Cup,Coffee Shop,51.5262343496183,-0.0768667459487915,E2 7JP,0.11381523510391983
573,4e22d193b61cdcf1eccbf8e5,Lily Vanilli Bakery,Cupcake Shop,51.5294260720699,-0.06967732173315319,E2 7RH,0.4641184359317319
574,4ac518baf964a520cca120e3,Jones Dairy Cafe,Bakery,51.529672207236196,-0.0696196370522148,E2 7RH,0.48417571231173157
575,53e3cdd1498e6c953a13a730,Lanark Coffee,Coffee Shop,51.53098583050659,-0.06912261191632774,E2 7SJ,0.6051903397571078
576,4f1eae18e4b07f86b53a47fb,The Barrel Boulangerie,Bakery,51.531308740878075,-0.08015143720730017,N1 6SH,0.5177751439808207
577,4acf62a8f964a52056d320e3,Boundary,French Restaurant,51.52449359553374,-0.07645181030008774,E2 7JE,0.2695417570198347
578,4b20fb61f964a520c73524e3,Waitrose & Partners,Supermarket,51.52220708,-0.09199505,EC1Y 8NX,0.6461249592701598
579,4f54b933e4b0ef9673b3101b,Apostrophe Kiosk,Bakery,51.52179647760576,-0.08494942077403045,,0.5703312649853092
580,4de8aa87d1648c979637aa69,Benugo,Bakery,51.520459725454415,-0.08051922413711,EC2A 2HS,0.6932603629319293
581,4c4194b9a5c5ef3b3645b06f,Percy Ingle,Bakery,51.53313959321205,-0.07823795294785545,N1 6PJ,0.7241947333460244
582,4baf41f7f964a52003f43be3,Sunday Brick Lane Bakery,Bakery,51.521862284223936,-0.0717203714823806,,0.6041915315760632
583,5be9a287c0c0840025e79643,Konditor,Bakery,51.519413,-0.076905,E1 6DT,0.816089965036359
584,4b5e222ef964a520797f29e3,The Pasty Shop,Bakery,51.51784464059435,-0.08155898830719042,,0.9863782223345017
585,4bfc120cda7120a1a38549fd,The Iskelé,Middle Eastern Restaurant,51.523967412896695,-0.0934525460298217,EC1Y 8QP,0.5511145398655641
586,4be49382bcef2d7f26c102e5,Corner Savoy Kebab,Middle Eastern Restaurant,51.52291347241859,-0.07781063047897722,EC2A 3EJ,0.4250638453397684
587,4bdb4a4c3904a5932ba8499e,Olives & Figs,Middle Eastern Restaurant,51.5181727588543,-0.07756756118032561,E1 7LJ,0.9514270523203857
588,4ade2f71f964a520b47321e3,Best Turkish Kebab,Middle Eastern Restaurant,51.525963990069236,-0.0860399268908779,,0.22346079569457958
589,4e3827f5d22d4cf95ee81151,Best Mangal Kebab & Café,Middle Eastern Restaurant,51.52624911945379,-0.08468590576481048,EC2A 3JD,0.16968246514904278
590,5721f689498e78e3bfa76e4f,Falafel Stand,Middle Eastern Restaurant,51.524685,-0.08409094,,0.26350591212419294
591,4e371e95fa7606f143f817c7,Golden Grill,Middle Eastern Restaurant,51.53068952639183,-0.0725217918425268,E2 7QL,0.513931518514345
592,59e203ae91eaca1e446cdead,Berber & Q,Middle Eastern Restaurant,51.5194471165228,-0.07529381655865341,E1 6EW,0.8209745173672895
593,4bf1372b3a15d13ab8473f9f,Shawarma,Lebanese Restaurant,51.52305450443764,-0.07802183972837795,EC2A 3EJ,0.4083732557604929
594,554a011f498e0b880cd7f1ae,Comptoir Libanais,Lebanese Restaurant,51.51876705966592,-0.08344380131537833,EC2M 2QS,0.8900534801953328
595,5045e765e4b0e2ca0b3526f3,Tapas Brindisa,Tapas Restaurant,51.526903744371715,-0.08025327087529185,EC2A 3AT,0.02888597152146049
596,4b127df2f964a5203a8a23e3,Laxeiro,Tapas Restaurant,51.52981414968927,-0.06869989303600905,E2 7RG,0.5178249910973766
597,57ab3348498e2da27946af85,Sagardi Basque Country Chefs,Tapas Restaurant,51.52527846914773,-0.08050888014291503,EC2A 3BS,0.15662252270283522
598,59b4348d1499466c7abadd6d,Suvlaki,Souvlaki Shop,51.52458,-0.071674,E1,0.36405964410892705
599,5747443d498e298f69724f43,Petit Pois,French Restaurant,51.52774923857484,-0.08136203090673678,N1 6NU,0.13045679621065706
600,4bf831094a67c9285df824cf,Eight Moorgate,French Restaurant,51.52144843347194,-0.08373098267185007,EC2A 2BX,0.5970587895677598
601,5ae1bcb2b8fd9d002ce9867d,Cocotte,French Restaurant,51.527798,-0.081583,N1,0.13844870943509488
602,4b996009f964a520be7635e3,Walluc Bistrot,French Restaurant,51.52439995472017,-0.07508973161538038,E2 7DP,0.3013837435615514
603,5c46216c98fbfc002c918ffa,Monsieur le Duck,French Restaurant,51.518958,-0.078972,EC1M 5RN,0.8610786001005966
604,5cae2bea788044002b5524ef,Flamboree,French Restaurant,51.525098,-0.091238,EC1V 9BW,0.42394464389660136
605,50c66b92e4b070f4c43e4b00,Galvin Café à Vin,French Restaurant,51.52025637773121,-0.0776861974124631,,0.7195499681113541
606,5903afb06a8d8658d3fd7fb4,TraTra,French Restaurant,51.52462898087485,-0.07637858390808105,E2 7DD,0.25716596722527074
607,4fe0ae98e4b0906ec747dfb6,Cafe A Vin,French Restaurant,51.52019007836418,-0.07730388071836362,E1 6DY,0.728366342253322
608,57d7eea3498ea60462c1fb36,What The Pitta,Food Stand,51.523515649465665,-0.07610388018980559,E1 6GY,0.3747864631380756
609,5729f951498e677fbce4d17b,Karims Stoop,Food Stand,51.52472577186193,-0.08414089679718018,EC2A 4PN,0.2606329032338557
610,5b224e2cb9b37b002c27d006,Pleasant Lady Jian Bing Trading Stall,Food Stand,51.519668,-0.07539,E1 6EW,0.7961558191943446
611,5996daffa423622ec96d0e2d,Beijummy,Food Stand,51.5228690834846,-0.09278462652032804,EC1Y 8JJ,0.6100879465678762
612,5579efae498e50edff5b18d1,Dinerama,Street Food Gathering,51.52326108268971,-0.07923273459774517,EC2A 3EJ,0.380993303860397
613,4ac518ebf964a52047ac20e3,Brick Lane Market,Market,51.52160002739757,-0.07170664083731425,E1 6QL,0.630524090349845
614,5b112b8b149946002cd94c20,Beijummy,Food Stand,51.52032,-0.07651672,E1 6EA,0.7177725172971181
615,5989adea0d8a0f590063b95f,Capo Pasta,Food Stand,51.52096078458771,-0.08636713027954102,EC2A 1RR,0.674027212727392
616,59749918c4df1d5f01a7a734,High Grade,Food Stand,51.521414,-0.07197,E1 6QL,0.6454201568937099
617,5b3cb4fedb1d81002c0df02f,Nilly's Turkish Kitchen,Food Stand,51.519493,-0.07530134,E1 6AA,0.8158997964839236
618,57f39fe5498e6e70a3d771d8,Yum Bowl,Food Stand,51.522992,-0.092767,E C1Y,0.6001969949607383
619,5a79a9cd66fc650f1644c87c,Village Kitchen,Food Stand,51.523063,-0.092857,E C1Y,0.597066479400002
620,4b643b76f964a52078a52ae3,Hoxton Street Market,Market,51.532208093655534,-0.08017659187316895,N1,0.6181338109190874
621,4cd160ed06b54688e33ee094,Sunny's Olive Tree,Salad Place,51.52640930074624,-0.08904195487165402,,0.312619423539103
622,53ba9a59498ed1821540080c,The Salad Kitchen,Salad Place,51.52360697869161,-0.09326681635567674,EC1Y 8PU,0.5690421494654343
623,52933ce811d26e8f9e581cf2,Vital Ingredient,Salad Place,51.51986422073605,-0.08334119548863539,,0.7683941971452047
624,4b28e379f964a520ef9524e3,Pret A Manger,Salad Place,51.52443232951331,-0.08748142055900683,EC1Y 1HQ,0.35912763596204206
625,4b040924f964a520055122e3,Pret A Manger,Salad Place,51.51973086005816,-0.0799619477559801,EC2M 3WA,0.7742695963032298
626,4fa8d80ce4b0f293ac00b41d,Silvio's Coffee House,Salad Place,51.52500680640774,-0.08207815238236649,E C2A,0.19987250918159716
627,4f8e7977e4b068786b2b4502,pod,Salad Place,51.524679766769495,-0.08088221170182253,EC2A 3HP,0.22455971454875862
628,4ea177136c25b62f3cf4d65a,pod,Salad Place,51.52530504806029,-0.08754093838732652,EC1Y 1BD,0.3014711581623732
629,558fe5ab498e1c64e2e58566,Pret A Manger,Salad Place,51.524849111487285,-0.07175700737087985,E2 7DG,0.34331731343897276
630,4b0a56eaf964a520592323e3,Pret A Manger,Salad Place,51.51931236348516,-0.0779790545857782,EC2M 4NR,0.823542800870686
631,4acd7f02f964a52034cc20e3,Nude Espresso,Coffee Shop,51.520264,-0.072695576,E1 6QR,0.7555475140663102
632,55bf6e03498e258482452a5b,Pret A Manger,Salad Place,51.52777240600744,-0.08941986055408097,EC1V 1NR,0.3467089967130867
633,53807912498ebd1e8259699c,Crazy Salads,Salad Place,51.52691589398617,-0.08048751564038417,EC1V 9NQ,0.03415000990364536
634,4b83d6b9f964a520ee1231e3,Chop'd,Salad Place,51.51933568257478,-0.07587441870604755,E1 6EW,0.8297025589292004
635,4de77eb21838131a8555dd55,pod,Salad Place,51.51974336875505,-0.08097648597120043,EC2A 2EH,0.7737493408531576
636,5b113c8d646e38002c615ed0,Jango,Salad Place,51.528405,-0.091969,EC1V 1JT,0.4542106150633237
637,4d8749f602eb5481974967f5,Salad Junction (formerly Healthy & Hearty),Salad Place,51.522012493334856,-0.08160307155558803,,0.5229084256989646
638,5d8dc65f2808690007cce947,Farmer. J,Salad Place,51.519787,-0.084874146,EC2M 2PA,0.7864785186840321
639,4e7d48d5490179d78c9798a4,Boundary Rooftop,Roof Deck,51.524551878009134,-0.07634642339717947,E2 7DD,0.26530955711448706
640,55f5a22c498e583586f60311,Thunderbird,Wings Joint,51.523253810325,-0.07916607027623901,EC2A 3EJ,0.38194347674809737
641,59e893b164c8e16a71be1926,The Orange Buffalo,Wings Joint,51.52745185573556,-0.08171403460437432,N1 6NU,0.10706797369583212
642,57fea7f8498ec9f10a167084,Popolo,Mediterranean Restaurant,51.52610380010933,-0.08209819489823418,EC2A 3DU,0.09805063646557896
643,56f2976f498e7e4f34cd8fd2,De Mêzka,Mediterranean Restaurant,51.528969,-0.083794,N1 6BU,0.28890474556357404
644,4b151e15f964a52074a823e3,Tas Firin,Mediterranean Restaurant,51.52545849746562,-0.0702727253628311,E2 6DG,0.3540740210587144
645,594532b6061b51682c154c31,Lido,Mediterranean Restaurant,51.52363637800325,-0.08077797760101021,E C2A,0.339790159958424
646,4ace0e07f964a52018ce20e3,Pilpel Falafel,Mediterranean Restaurant,51.51909848621259,-0.07712982733096684,E1 6AT,0.8500445514045882
647,4b86e357f964a52010a431e3,Damascu Bite,Mediterranean Restaurant,51.523409592999336,-0.07146314473291508,E1 6SE,0.4632085019718336
648,537caa65498e81df80c0aa2b,Badolina,Mediterranean Restaurant,51.51826801216535,-0.07982395758820122,EC2M 4NR,0.9375069112539663
649,4bdb4a4c3904a5932ba8499e,Olives & Figs,Mediterranean Restaurant,51.5181727588543,-0.07756756118032561,E1 7LJ,0.9514270523203857
650,4e3827f5d22d4cf95ee81151,Best Mangal Kebab & Café,Mediterranean Restaurant,51.52624911945379,-0.08468590576481048,EC2A 3JD,0.16968246514904278
651,5294a1d411d2c747eb23c9ae,Kingdom of Badolina,Mediterranean Restaurant,51.51826861745977,-0.07974278163603112,,0.9374503146909603
652,4b916b91f964a52014bb33e3,Carnevale,Mediterranean Restaurant,51.5228177223886,-0.09282453485713163,EC1 8 JL,0.6150561015003306
653,4cc6c724306e224bec77aa6c,Sichuan Folk,Szechuan Restaurant,51.520279,-0.072573,E1 6QR,0.7553287503532823
654,4de626acd22d7fddb9cf5aaf,Kung Food,Chinese Restaurant,51.5181819546875,-0.07935439274183878,E1 7HY,0.9472840649397697
655,5698f64c498e6a3be418ab85,The Sichuan,Szechuan Restaurant,51.522159812186,-0.08702817994493915,EC1Y 2AA,0.5587158587445581
656,55d79303498ed8dc0c88529d,The Old Street Chinese Restaurant,Szechuan Restaurant,51.52542004942879,-0.08982217966218081,,0.3654503562734419
657,5592993b498eac424cb36ec1,Falafelicious,Falafel Restaurant,51.523560317885526,-0.07550106869342352,E1 6JY,0.3777417232423621
658,4c56b31130d82d7fd409d862,Hoxton Beach Falafel,Falafel Restaurant,51.52313064257692,-0.09312417421988904,E C1Y,0.5988077389944394
659,4bc4e241b492d13ad8b6aa60,Damascu Bite,Falafel Restaurant,51.522299778330414,-0.07804697924154928,E1 6PG,0.4916286706143413
660,57fa364f498e8e279796db42,Leon,Falafel Restaurant,51.518109562572654,-0.08161292972120289,EC2M 7PD,0.956976652652027
661,500d3e33e4b001d6c65745dc,El Tel's Fine Falafel,Falafel Restaurant,51.531147354084176,-0.08017961424623711,,0.49978663166719234
662,599d7617a22db7472663888a,Fennec & Parsley,Falafel Restaurant,51.531246,-0.08010283,N1 6SH,0.5107491339335122
663,4bf1372b3a15d13ab8473f9f,Shawarma,Falafel Restaurant,51.52305450443764,-0.07802183972837795,EC2A 3EJ,0.4083732557604929
664,5b02d12fb6eedb0039e5c550,Pilpel,Falafel Restaurant,51.519886,-0.074917,E1 6EW,0.7756502112920238
665,5000136be4b0e08eeeb327c8,Pipel,Falafel Restaurant,51.519230981978765,-0.07678543189537813,,0.8367510466253879
666,4bc85d0caf07a59369ac802d,Falafel Man,Falafel Restaurant,51.523271,-0.093002,,0.5854241934552945
667,56321ec3498e2809b3526df5,Nana Fanny's Salt Beef,Jewish Restaurant,51.51971907159178,-0.07511794567108154,,0.792409432262281
668,4ac518c7f964a52048a520e3,Troy Bar,Caribbean Restaurant,51.527644575618176,-0.08009326869787449,N1 6NG,0.10903298878377837
669,5a590816f193c07e2a1cd04a,Rudie’s,Caribbean Restaurant,51.523465,-0.077056,E1,0.3703698419217665
670,59524417491be724fc57e686,Cottons Rum Shack & Restaurant,Caribbean Restaurant,51.526333,-0.080162,EC2A 3AR,0.038641272725199266
671,518d34da498e9cbf89ad52f6,Cottons Rhum Shack,Caribbean Restaurant,51.52357152304799,-0.07653535635622204,E1 6GY,0.36406957825566905
672,53c4a4df498e9a18da9b010a,DF Tacos,Mexican Restaurant,51.52045962408131,-0.07325735912002451,E1 6QR,0.7287854500615436
673,5012e23ce4b0abd8750bd865,Crispy Cod Fish & Chips,Fish & Chips Shop,51.531496,-0.080142,N1 6JP,0.5386631784553554
674,524ac64711d27b641eba4889,Merchants Tavern,Pub,51.52502667823545,-0.08115225178433516,EC2A 3PG,0.188252633974535
675,50237f538055249578a0f772,Angler Rooftop Restaurant and Terrace,Seafood Restaurant,51.51910998709554,-0.08672874544646893,EC2M 2AF,0.8750223050539508
676,50ada85ae4b09d9e06107da4,Kennedy's,Fish & Chips Shop,51.52367600780855,-0.093329390937727,EC1Y 8JT,0.5661673069707774
677,4ac5dbf4f964a5207cb220e3,Strongroom Bar,Bar,51.52604641741373,-0.07971371599299767,EC2A 3SQ,0.0697839921414407
678,4acb902bf964a52052c420e3,Pham Sushi,Sushi Restaurant,51.52343080881136,-0.09314279548812773,EC1Y 8JL,0.577762643053878
679,4bfacee3bc869521d2fd7a6b,Longdan Express,Food & Drink Shop,51.527699773572444,-0.07666962794223388,E2 7NX,0.15887992498833692
680,4bd2fa6641b9ef3becf7fee5,Old Spitalfields Market,Flea Market,51.519667890407966,-0.07537465371780935,E1 6EW,0.7962684355718361
681,4ad5c39ff964a520650321e3,The Diner,Diner,51.52619653738177,-0.08030534470123409,EC2A 3AQ,0.054602784985631626
682,4ac518d8f964a52090a820e3,Moshi Moshi,Sushi Restaurant,51.518172498400176,-0.08196671712452108,EC2M 7QH,0.9507843803825865
683,5920509ed3cce80aec2fd1b6,Red Rooster,American Restaurant,51.52353250186902,-0.08041613235598259,EC2A 3PT,0.35049673913536544
684,4b09790ef964a520d11723e3,The Royal Oak,Pub,51.52955364862908,-0.0693086192292293,E2 7RG,0.482952438201973
685,4b472756f964a520072c26e3,The Carpenters Arms,Pub,51.523927250026055,-0.06744134965788824,E2 6EG,0.5225625748201944
686,4ac518c6f964a5201aa520e3,The Hoxton Pony,Bar,51.52537736065559,-0.08034056071939444,EC2A 3AH,0.14498083592659922
687,51605f56e4b024efa71a9873,The Crown and Shuttle,Pub,51.522497027062464,-0.07818633894962433,E1 6PS,0.4691963858349369
688,541a9a95498e11da4a282f03,Finch's,Pub,51.52170890980766,-0.08704825156338272,EC2A 1AN,0.6047041275323862
689,4af15f9cf964a520fce021e3,Casa Blue,Bar,51.52474521082181,-0.07180971699353161,E2 6DG,0.34888663974233214
690,4ad5a19bf964a520320321e3,Catch,Bar,51.527755204529804,-0.07797117306430278,E2 8DA,0.13767274566016866
691,4b3a3064f964a520116225e3,All Bar One,Bar,51.52041355425321,-0.08738556894742812,EC2A 1NS,0.7431723727233789
692,4af47862f964a520d6f221e3,London Liverpool Street Railway Station (LST) (London Liverpool Street Railway Station),Train Station,51.51796912134144,-0.08158211126712737,EC2M 7PY,0.9725569824330101
693,5177c749e4b0b3a24a52f06f,urbanest Café @ Hoxton,Coffee Shop,51.529684314038064,-0.08684189843567461,N1 6AA,0.4111950656096339
694,4ace3a10f964a52035cf20e3,Old Kings Head,Pub,51.523177173671876,-0.08219078657672893,EC2A 4JB,0.3974607527337399
695,4ad2fb9df964a520f0e220e3,Leon,Fast Food Restaurant,51.51986479465608,-0.0759917123590142,E1 6DW,0.7708305763479628
696,5210e74d11d226cf7a972e1d,Tulum Tacos,Mexican Restaurant,51.524219,-0.077578,,0.2845507824450095
697,4ad772f4f964a520a60a21e3,The Flying Horse,Pub,51.520375438521015,-0.08517618207520233,EC2A 2ER,0.7249755352709499
698,4b215793f964a520603a24e3,Woodin's Shades,Pub,51.51821111991677,-0.07980715420603866,EC2M 4PT,0.9438570387449614
699,4bb0cdecf964a520815e3ce3,Wholesale Tropical,Pet Store,51.52588,-0.06778,E2 0AA,0.42139134144311136
700,4ac518c1f964a520e8a320e3,Cargo,Nightclub,51.52637664785836,-0.07892032115815498,EC2A 3AY,0.046490176615117805
701,4ad2dbcdf964a520bfe220e3,First Step Cafe,Diner,51.52289414922194,-0.08246192401245664,EC2A 4JB,0.43025000147971987
702,4b59f10ff964a52098a228e3,Beach Blanket Babylon,Cocktail Bar,51.523831815206016,-0.07435572297186535,E1 6LA,0.36843769176651503
703,4ae8c18df964a52002b221e3,Dirty Dicks,Pub,51.51825778867688,-0.07989732681117509,EC2M 4NR,0.9386448472298613
704,4f5b3578e4b03a6a1133b76d,The Merchant of Bishopsgate,Pub,51.51797832173646,-0.08247497920880979,EC2M 7PY,0.9738014802283022
705,5acd1cde78782c712652802d,Lahpet Burmese Cuisine,Burmese Restaurant,51.52415232348296,-0.07296851922451489,E1 6JW,0.36658265092819137
706,5be9da3be07550002cd97f60,Island Poké,Poke Place,51.524765,-0.0808,EC2A 3EP,0.21474095562859774
